id,name,region,country,lat,lon,altitude_m,types,plan_template,maps_url,sbb_url,webcam_url,status
arlesheim-heights,Arlesheim Heights,Basel Uplands,CH,47.27588,7.87821,867,nature|food|family|viewpoint,Cable car or short hike | Panorama viewpoint stop | Mountain hut lunch,"https://maps.google.com/?q=47.27588,7.87821",https://www.sbb.ch/en,,candidate
basel-uplands-panorama-01,Basel Uplands Panorama 01,Basel Uplands,CH,47.56243,7.68676,1102,family|viewpoint|nature|food,Cable car or short hike | Panorama viewpoint stop | Mountain hut lunch,"https://maps.google.com/?q=47.56243,7.68676",https://www.sbb.ch/en,,candidate
basel-uplands-panorama-02,Basel Uplands Panorama 02,Basel Uplands,CH,47.35816,7.61487,1055,food|nature|viewpoint,Cable car or short hike | Panorama viewpoint stop | Mountain hut lunch,"https://maps.google.com/?q=47.35816,7.61487",https://www.sbb.ch/en,,candidate
basel-uplands-panorama-03,Basel Uplands Panorama 03,Basel Uplands,CH,47.36268,7.90642,581,nature|food|family|viewpoint,Cable car or short hike | Panorama viewpoint stop | Mountain hut lunch,"https://maps.google.com/?q=47.36268,7.90642",https://www.sbb.ch/en,,candidate
basel-uplands-panorama-04,Basel Uplands Panorama 04,Basel Uplands,CH,47.49999,7.71421,1176,viewpoint|family|food,Cable car or short hike | Panorama viewpoint stop | Mountain hut lunch,"https://maps.google.com/?q=47.49999,7.71421",https://www.sbb.ch/en,,candidate
basel-uplands-panorama-05,Basel Uplands Panorama 05,Basel Uplands,CH,47.53561,7.55888,1241,family|viewpoint|nature|food,Cable car or short hike | Panorama viewpoint stop | Mountain hut lunch,"https://maps.google.com/?q=47.53561,7.55888",https://www.sbb.ch/en,,candidate
basel-uplands-panorama-06,Basel Uplands Panorama 06,Basel Uplands,CH,47.55637,7.89786,1168,food|nature|viewpoint,Cable car or short hike | Panorama viewpoint stop | Mountain hut lunch,"https://maps.google.com/?q=47.55637,7.89786",https://www.sbb.ch/en,,candidate
basel-uplands-panorama-07,Basel Uplands Panorama 07,Basel Uplands,CH,47.40283,7.57917,602,nature|food|family|viewpoint,Cable car or short hike | Panorama viewpoint stop | Mountain hut lunch,"https://maps.google.com/?q=47.40283,7.57917",https://www.sbb.ch/en,,candidate
basel-uplands-panorama-08,Basel Uplands Panorama 08,Basel Uplands,CH,47.31609,7.90562,632,viewpoint|family|food,Cable car or short hike | Panorama viewpoint stop | Mountain hut lunch,"https://maps.google.com/?q=47.31609,7.90562",https://www.sbb.ch/en,,candidate
basel-uplands-panorama-09,Basel Uplands Panorama 09,Basel Uplands,CH,47.28495,7.66811,737,family|viewpoint|nature|food,Cable car or short hike | Panorama viewpoint stop | Mountain hut lunch,"https://maps.google.com/?q=47.28495,7.66811",https://www.sbb.ch/en,,candidate
basel-uplands-panorama-10,Basel Uplands Panorama 10,Basel Uplands,CH,47.38240,7.61840,1172,nature|food|family|viewpoint,Cable car or short hike | Panorama viewpoint stop | Mountain hut lunch,"https://maps.google.com/?q=47.38240,7.61840",https://www.sbb.ch/en,,candidate
basel-uplands-panorama-11,Basel Uplands Panorama 11,Basel Uplands,CH,47.38183,7.74446,806,food|nature|viewpoint,Cable car or short hike | Panorama viewpoint stop | Mountain hut lunch,"https://maps.google.com/?q=47.38183,7.74446",https://www.sbb.ch/en,,candidate
basel-uplands-panorama-12,Basel Uplands Panorama 12,Basel Uplands,CH,47.50484,7.85564,624,family|viewpoint|nature|food,Cable car or short hike | Panorama viewpoint stop | Mountain hut lunch,"https://maps.google.com/?q=47.50484,7.85564",https://www.sbb.ch/en,,candidate
basel-uplands-panorama-13,Basel Uplands Panorama 13,Basel Uplands,CH,47.43778,7.57040,688,viewpoint|family|food,Cable car or short hike | Panorama viewpoint stop | Mountain hut lunch,"https://maps.google.com/?q=47.43778,7.57040",https://www.sbb.ch/en,,candidate
belchenflue,Belchenflue,Basel Uplands,CH,47.31592,7.77160,1195,family|viewpoint|nature|food,Cable car or short hike | Panorama viewpoint stop | Mountain hut lunch,"https://maps.google.com/?q=47.31592,7.77160",https://www.sbb.ch/en,,candidate
burenflue,Bürenflue,Basel Uplands,CH,47.46012,7.76204,561,food|nature|viewpoint,Cable car or short hike | Panorama viewpoint stop | Mountain hut lunch,"https://maps.google.com/?q=47.46012,7.76204",https://www.sbb.ch/en,,candidate
gempenplateau,Gempenplateau,Basel Uplands,CH,47.33771,7.85235,666,viewpoint|family|food,Cable car or short hike | Panorama viewpoint stop | Mountain hut lunch,"https://maps.google.com/?q=47.33771,7.85235",https://www.sbb.ch/en,,candidate
homberg,Homberg,Basel Uplands,CH,47.32565,7.90946,938,food|nature|viewpoint,Cable car or short hike | Panorama viewpoint stop | Mountain hut lunch,"https://maps.google.com/?q=47.32565,7.90946",https://www.sbb.ch/en,,candidate
langenbruck-panorama,Langenbruck Panorama,Basel Uplands,CH,47.44050,7.81780,538,food|nature|viewpoint,Cable car or short hike | Panorama viewpoint stop | Mountain hut lunch,"https://maps.google.com/?q=47.44050,7.81780",https://www.sbb.ch/en,,candidate
oberbaselbiet-trailhead,Oberbaselbiet Trailhead,Basel Uplands,CH,47.37166,7.58122,738,food|nature|viewpoint,Cable car or short hike | Panorama viewpoint stop | Mountain hut lunch,"https://maps.google.com/?q=47.37166,7.58122",https://www.sbb.ch/en,,candidate
reigoldswil-ridge,Reigoldswil Ridge,Basel Uplands,CH,47.43096,7.82806,939,family|viewpoint|nature|food,Cable car or short hike | Panorama viewpoint stop | Mountain hut lunch,"https://maps.google.com/?q=47.43096,7.82806",https://www.sbb.ch/en,,candidate
sissach-panorama,Sissach Panorama,Basel Uplands,CH,47.48663,7.61878,1167,viewpoint|family|food,Cable car or short hike | Panorama viewpoint stop | Mountain hut lunch,"https://maps.google.com/?q=47.48663,7.61878",https://www.sbb.ch/en,,candidate
wisenberg,Wisenberg,Basel Uplands,CH,47.54372,7.62538,953,viewpoint|family|food,Cable car or short hike | Panorama viewpoint stop | Mountain hut lunch,"https://maps.google.com/?q=47.54372,7.62538",https://www.sbb.ch/en,,candidate
bantiger,Bantiger,"Bern, BE",CH,46.97700,7.52800,947,nature|viewpoint,Short hike from Ferenberg (30 min) | Transmission tower viewpoint | Gasthof Bantiger for lunch,"https://maps.google.com/?q=46.977,7.528",https://www.sbb.ch/en,,baseline
gurten,Gurten,"Bern, BE",CH,46.92100,7.43500,858,nature|viewpoint|family|food,Funicular from Wabern | Panoramic view over Bern and Alps | Restaurant Gurten with terrace | Playground for kids,"https://maps.google.com/?q=46.921,7.435",https://www.sbb.ch/en,,baseline
adelboden,Adelboden,"Berner Oberland, BE",CH,46.49300,7.55700,1353,town|mountain|food|family,Stroll through the village | Panoramic winter walk | Lunch at a traditional restaurant | Optional: Tschentenalp gondola,"https://maps.google.com/?q=46.493,7.557",https://www.sbb.ch/en,,baseline
brienz,Brienz,"Berner Oberland, BE",CH,46.75400,8.04100,566,town|lake|family|food,Lakeside promenade walk | Ballenberg open-air museum (optional) | Brienz Rothorn steam railway | Lunch by the lake,"https://maps.google.com/?q=46.754,8.041",https://www.sbb.ch/en,,baseline
grindelwald,Grindelwald,"Berner Oberland, BE",CH,46.62400,8.04100,1034,town|mountain|viewpoint|family,Village walk with Eiger views | First gondola for panorama | Lunch at a mountain restaurant | Optional: Jungfraujoch excursion,"https://maps.google.com/?q=46.624,8.041",https://www.sbb.ch/en,,baseline
hasliberg,Hasliberg,"Berner Oberland, BE",CH,46.74700,8.16900,1082,town|mountain|family,Gondola from Meiringen | Muggestutz dwarf trail (family) | Panoramic walks | Mountain restaurants,"https://maps.google.com/?q=46.747,8.169",https://www.sbb.ch/en,,baseline
niederhorn,Niederhorn,"Berner Oberland, BE",CH,46.71000,7.77800,1963,nature|viewpoint|mountain,Funicular + gondola from Beatenbucht | Summit panorama over Thunersee | Ibex viewing in winter | Mountain restaurant,"https://maps.google.com/?q=46.710,7.778",https://www.sbb.ch/en,,baseline
thun,Thun,"Berner Oberland, BE",CH,46.75900,7.62900,558,town|lake|food|family,Old town walk + castle visit | Lakeside promenade | Lunch in Obere Hauptgasse | Optional: boat on Thunersee,"https://maps.google.com/?q=46.759,7.629",https://www.sbb.ch/en,,baseline
adelboden-silleren,Adelboden Silleren,Bernese Oberland,CH,46.42915,7.76401,1490,food|family|viewpoint|mountain,Cable car or short hike | Panorama viewpoint stop | Mountain hut lunch,"https://maps.google.com/?q=46.42915,7.76401",https://www.sbb.ch/en,,candidate
aeschi-terrace,Aeschi Terrace,Bernese Oberland,CH,46.61609,7.85858,723,family|food|viewpoint,Cable car or short hike | Panorama viewpoint stop | Mountain hut lunch,"https://maps.google.com/?q=46.61609,7.85858",https://www.sbb.ch/en,,candidate
beatenberg-panorama,Beatenberg Panorama,Bernese Oberland,CH,46.99950,7.92169,2387,viewpoint|mountain|family|nature,Cable car or short hike | Panorama viewpoint stop | Mountain hut lunch,"https://maps.google.com/?q=46.99950,7.92169",https://www.sbb.ch/en,,candidate
bernese-oberland-panorama-01,Bernese Oberland Panorama 01,Bernese Oberland,CH,46.40496,8.22578,880,food|mountain|nature,Cable car or short hike | Panorama viewpoint stop | Mountain hut lunch,"https://maps.google.com/?q=46.40496,8.22578",https://www.sbb.ch/en,,candidate
bernese-oberland-panorama-02,Bernese Oberland Panorama 02,Bernese Oberland,CH,46.38076,8.12594,1141,mountain|food|nature|viewpoint,Cable car or short hike | Panorama viewpoint stop | Mountain hut lunch,"https://maps.google.com/?q=46.38076,8.12594",https://www.sbb.ch/en,,candidate
bernese-oberland-panorama-03,Bernese Oberland Panorama 03,Bernese Oberland,CH,46.97158,8.13298,2015,viewpoint|nature|family,Cable car or short hike | Panorama viewpoint stop | Mountain hut lunch,"https://maps.google.com/?q=46.97158,8.13298",https://www.sbb.ch/en,,candidate
bernese-oberland-panorama-04,Bernese Oberland Panorama 04,Bernese Oberland,CH,46.42241,7.59267,1912,nature|viewpoint|mountain|food,Cable car or short hike | Panorama viewpoint stop | Mountain hut lunch,"https://maps.google.com/?q=46.42241,7.59267",https://www.sbb.ch/en,,candidate
bernese-oberland-panorama-05,Bernese Oberland Panorama 05,Bernese Oberland,CH,46.38943,7.76311,1405,food|mountain|nature,Cable car or short hike | Panorama viewpoint stop | Mountain hut lunch,"https://maps.google.com/?q=46.38943,7.76311",https://www.sbb.ch/en,,candidate
bernese-oberland-panorama-06,Bernese Oberland Panorama 06,Bernese Oberland,CH,46.40690,7.72778,1241,food|family|viewpoint|mountain,Cable car or short hike | Panorama viewpoint stop | Mountain hut lunch,"https://maps.google.com/?q=46.40690,7.72778",https://www.sbb.ch/en,,candidate
bernese-oberland-panorama-07,Bernese Oberland Panorama 07,Bernese Oberland,CH,46.55359,8.24054,1082,family|food|mountain,Cable car or short hike | Panorama viewpoint stop | Mountain hut lunch,"https://maps.google.com/?q=46.55359,8.24054",https://www.sbb.ch/en,,candidate
bernese-oberland-panorama-08,Bernese Oberland Panorama 08,Bernese Oberland,CH,46.53342,8.00436,2400,mountain|food|family|nature,Cable car or short hike | Panorama viewpoint stop | Mountain hut lunch,"https://maps.google.com/?q=46.53342,8.00436",https://www.sbb.ch/en,,candidate
bernese-oberland-panorama-09,Bernese Oberland Panorama 09,Bernese Oberland,CH,46.85131,8.10765,1221,viewpoint|nature|food,Cable car or short hike | Panorama viewpoint stop | Mountain hut lunch,"https://maps.google.com/?q=46.85131,8.10765",https://www.sbb.ch/en,,candidate
bernese-oberland-panorama-10,Bernese Oberland Panorama 10,Bernese Oberland,CH,46.99211,8.11411,1089,food|mountain|viewpoint,Cable car or short hike | Panorama viewpoint stop | Mountain hut lunch,"https://maps.google.com/?q=46.99211,8.11411",https://www.sbb.ch/en,,candidate
bernese-oberland-panorama-11,Bernese Oberland Panorama 11,Bernese Oberland,CH,46.80059,8.15730,770,family|nature|mountain|food,Cable car or short hike | Panorama viewpoint stop | Mountain hut lunch,"https://maps.google.com/?q=46.80059,8.15730",https://www.sbb.ch/en,,candidate
bernese-oberland-panorama-12,Bernese Oberland Panorama 12,Bernese Oberland,CH,46.65147,7.91132,1130,family|food|viewpoint,Cable car or short hike | Panorama viewpoint stop | Mountain hut lunch,"https://maps.google.com/?q=46.65147,7.91132",https://www.sbb.ch/en,,candidate
bernese-oberland-panorama-13,Bernese Oberland Panorama 13,Bernese Oberland,CH,46.36568,8.10053,2124,food|family|nature|viewpoint,Cable car or short hike | Panorama viewpoint stop | Mountain hut lunch,"https://maps.google.com/?q=46.36568,8.10053",https://www.sbb.ch/en,,candidate
blausee-overlook,Blausee Overlook,Bernese Oberland,CH,46.41844,7.57579,1876,family|nature|viewpoint|mountain,Cable car or short hike | Panorama viewpoint stop | Mountain hut lunch,"https://maps.google.com/?q=46.41844,7.57579",https://www.sbb.ch/en,,candidate
first-grindelwald,First Grindelwald,Bernese Oberland,CH,46.60609,7.70538,2195,food|mountain|viewpoint,Cable car or short hike | Panorama viewpoint stop | Mountain hut lunch,"https://maps.google.com/?q=46.60609,7.70538",https://www.sbb.ch/en,,candidate
harder-kulm,Harder Kulm,Bernese Oberland,CH,46.82963,8.25202,1255,viewpoint|nature|food,Cable car or short hike | Panorama viewpoint stop | Mountain hut lunch,"https://maps.google.com/?q=46.82963,8.25202",https://www.sbb.ch/en,,candidate
interlaken,Interlaken,Bernese Oberland,CH,46.68630,7.86320,568,town|nature|lake|family,Höhematte promenade with Jungfrau views | Lake Thun or Lake Brienz cruise | Harder Kulm funicular for panorama | Fondue dinner,"https://maps.google.com/?q=46.6863,7.8632",https://www.sbb.ch/en/buying/pages/fahrplan/fahrplan.xhtml?nach=Interlaken+Ost,,baseline
kandersteg-heights,Kandersteg Heights,Bernese Oberland,CH,46.73774,8.24352,1349,mountain|food|family|nature,Cable car or short hike | Panorama viewpoint stop | Mountain hut lunch,"https://maps.google.com/?q=46.73774,8.24352",https://www.sbb.ch/en,,candidate
kleine-scheidegg,Kleine Scheidegg,Bernese Oberland,CH,46.97181,7.62144,650,family|food|viewpoint,Cable car or short hike | Panorama viewpoint stop | Mountain hut lunch,"https://maps.google.com/?q=46.97181,7.62144",https://www.sbb.ch/en,,candidate
lauterbrunnen-rim,Lauterbrunnen Rim,Bernese Oberland,CH,46.58418,7.96932,1669,mountain|viewpoint|family,Cable car or short hike | Panorama viewpoint stop | Mountain hut lunch,"https://maps.google.com/?q=46.58418,7.96932",https://www.sbb.ch/en,,candidate
lenk-betelberg,Lenk Betelberg,Bernese Oberland,CH,46.48159,7.81954,1678,mountain|food|nature|viewpoint,Cable car or short hike | Panorama viewpoint stop | Mountain hut lunch,"https://maps.google.com/?q=46.48159,7.81954",https://www.sbb.ch/en,,candidate
mannlichen,Männlichen,Bernese Oberland,CH,46.71755,8.21390,1313,family|nature|mountain|food,Cable car or short hike | Panorama viewpoint stop | Mountain hut lunch,"https://maps.google.com/?q=46.71755,8.21390",https://www.sbb.ch/en,,candidate
murren-sun-terrace,Mürren Sun Terrace,Bernese Oberland,CH,46.39689,7.71718,2205,food|family|viewpoint|mountain,Cable car or short hike | Panorama viewpoint stop | Mountain hut lunch,"https://maps.google.com/?q=46.39689,7.71718",https://www.sbb.ch/en,,candidate
niesen-kulm,Niesen Kulm,Bernese Oberland,CH,46.43238,8.25481,1689,food|mountain|nature,Cable car or short hike | Panorama viewpoint stop | Mountain hut lunch,"https://maps.google.com/?q=46.43238,8.25481",https://www.sbb.ch/en,,candidate
saxeten-ridge,Saxeten Ridge,Bernese Oberland,CH,46.87151,7.83435,1031,nature|family|food,Scenic stop | Short walk | Coffee or lunch and return,"https://maps.google.com/?q=46.87151,7.83435",https://www.sbb.ch/en,,candidate
schynige-platte,Schynige Platte,Bernese Oberland,CH,46.34851,8.07723,883,family|nature|viewpoint|mountain,Cable car or short hike | Panorama viewpoint stop | Mountain hut lunch,"https://maps.google.com/?q=46.34851,8.07723",https://www.sbb.ch/en,,candidate
wengen-panorama,Wengen Panorama,Bernese Oberland,CH,46.37062,7.60058,1885,food|mountain|viewpoint,Cable car or short hike | Panorama viewpoint stop | Mountain hut lunch,"https://maps.google.com/?q=46.37062,7.60058",https://www.sbb.ch/en,,candidate
bern,Bern,Canton Bern,CH,46.94800,7.44740,540,town|food|family,UNESCO old town arcade walk | Bear Park & Rosengarten viewpoint | Zytglogge clock tower | Lunch at Kornhauskeller or Altes Tramdepot,"https://maps.google.com/?q=46.9480,7.4474",https://www.sbb.ch/en/buying/pages/fahrplan/fahrplan.xhtml?nach=Bern,,baseline
zurich,Zürich,Canton Zürich,CH,47.37690,8.54170,408,town|food|lake|family,Bahnhofstrasse & Lindenhof viewpoint | Old town (Niederdorf) wander | Lake Zürich promenade | Uetliberg for sunset above the fog,"https://maps.google.com/?q=47.3769,8.5417",https://www.sbb.ch/en/buying/pages/fahrplan/fahrplan.xhtml?nach=Zürich+HB,,baseline
brunni-engelberg,Brunni Engelberg,Central Swiss Peaks,CH,46.90084,8.09789,1050,viewpoint|nature|family,Cable car or short hike | Panorama viewpoint stop | Mountain hut lunch,"https://maps.google.com/?q=46.90084,8.09789",https://www.sbb.ch/en,,candidate
burgenstock,Bürgenstock,Central Swiss Peaks,CH,47.06068,8.10300,2287,nature|viewpoint|mountain|family,Cable car or short hike | Panorama viewpoint stop | Mountain hut lunch,"https://maps.google.com/?q=47.06068,8.10300",https://www.sbb.ch/en,,candidate
central-swiss-peaks-panorama-01,Central Swiss Peaks Panorama 01,Central Swiss Peaks,CH,47.16346,8.29064,2053,viewpoint|nature|family,Cable car or short hike | Panorama viewpoint stop | Mountain hut lunch,"https://maps.google.com/?q=47.16346,8.29064",https://www.sbb.ch/en,,candidate
central-swiss-peaks-panorama-02,Central Swiss Peaks Panorama 02,Central Swiss Peaks,CH,46.89952,8.16342,918,mountain|family|nature|viewpoint,Cable car or short hike | Panorama viewpoint stop | Mountain hut lunch,"https://maps.google.com/?q=46.89952,8.16342",https://www.sbb.ch/en,,candidate
central-swiss-peaks-panorama-03,Central Swiss Peaks Panorama 03,Central Swiss Peaks,CH,47.13488,8.65729,1486,family|mountain|viewpoint,Cable car or short hike | Panorama viewpoint stop | Mountain hut lunch,"https://maps.google.com/?q=47.13488,8.65729",https://www.sbb.ch/en,,candidate
central-swiss-peaks-panorama-04,Central Swiss Peaks Panorama 04,Central Swiss Peaks,CH,46.76164,8.30354,1162,nature|viewpoint|mountain|family,Cable car or short hike | Panorama viewpoint stop | Mountain hut lunch,"https://maps.google.com/?q=46.76164,8.30354",https://www.sbb.ch/en,,candidate
central-swiss-peaks-panorama-05,Central Swiss Peaks Panorama 05,Central Swiss Peaks,CH,46.83388,8.01918,1558,viewpoint|nature|family,Cable car or short hike | Panorama viewpoint stop | Mountain hut lunch,"https://maps.google.com/?q=46.83388,8.01918",https://www.sbb.ch/en,,candidate
central-swiss-peaks-panorama-06,Central Swiss Peaks Panorama 06,Central Swiss Peaks,CH,46.88660,8.55891,1505,mountain|family|nature|viewpoint,Cable car or short hike | Panorama viewpoint stop | Mountain hut lunch,"https://maps.google.com/?q=46.88660,8.55891",https://www.sbb.ch/en,,candidate
central-swiss-peaks-panorama-07,Central Swiss Peaks Panorama 07,Central Swiss Peaks,CH,47.06130,8.55271,1587,family|mountain|viewpoint,Cable car or short hike | Panorama viewpoint stop | Mountain hut lunch,"https://maps.google.com/?q=47.06130,8.55271",https://www.sbb.ch/en,,candidate
central-swiss-peaks-panorama-08,Central Swiss Peaks Panorama 08,Central Swiss Peaks,CH,46.89620,8.43226,2043,nature|viewpoint|mountain|family,Cable car or short hike | Panorama viewpoint stop | Mountain hut lunch,"https://maps.google.com/?q=46.89620,8.43226",https://www.sbb.ch/en,,candidate
central-swiss-peaks-panorama-09,Central Swiss Peaks Panorama 09,Central Swiss Peaks,CH,46.77885,8.38422,2266,viewpoint|nature|family,Cable car or short hike | Panorama viewpoint stop | Mountain hut lunch,"https://maps.google.com/?q=46.77885,8.38422",https://www.sbb.ch/en,,candidate
central-swiss-peaks-panorama-10,Central Swiss Peaks Panorama 10,Central Swiss Peaks,CH,46.70902,8.01161,2151,family|mountain|viewpoint,Cable car or short hike | Panorama viewpoint stop | Mountain hut lunch,"https://maps.google.com/?q=46.70902,8.01161",https://www.sbb.ch/en,,candidate
central-swiss-peaks-panorama-11,Central Swiss Peaks Panorama 11,Central Swiss Peaks,CH,46.85105,8.68948,2009,mountain|family|nature|viewpoint,Cable car or short hike | Panorama viewpoint stop | Mountain hut lunch,"https://maps.google.com/?q=46.85105,8.68948",https://www.sbb.ch/en,,candidate
central-swiss-peaks-panorama-12,Central Swiss Peaks Panorama 12,Central Swiss Peaks,CH,47.04509,8.27821,1254,viewpoint|nature|family,Cable car or short hike | Panorama viewpoint stop | Mountain hut lunch,"https://maps.google.com/?q=47.04509,8.27821",https://www.sbb.ch/en,,candidate
central-swiss-peaks-panorama-13,Central Swiss Peaks Panorama 13,Central Swiss Peaks,CH,47.01496,8.50187,1867,nature|viewpoint|mountain|family,Cable car or short hike | Panorama viewpoint stop | Mountain hut lunch,"https://maps.google.com/?q=47.01496,8.50187",https://www.sbb.ch/en,,candidate
klewenalp,Klewenalp,Central Swiss Peaks,CH,47.25523,8.60806,1142,mountain|family|nature|viewpoint,Cable car or short hike | Panorama viewpoint stop | Mountain hut lunch,"https://maps.google.com/?q=47.25523,8.60806",https://www.sbb.ch/en,,candidate
melchsee-frutt,Melchsee-Frutt,Central Swiss Peaks,CH,47.12295,8.40083,978,family|mountain|viewpoint,Cable car or short hike | Panorama viewpoint stop | Mountain hut lunch,"https://maps.google.com/?q=47.12295,8.40083",https://www.sbb.ch/en,,candidate
niederbauen,Niederbauen,Central Swiss Peaks,CH,47.10253,8.23666,1803,viewpoint|nature|family,Cable car or short hike | Panorama viewpoint stop | Mountain hut lunch,"https://maps.google.com/?q=47.10253,8.23666",https://www.sbb.ch/en,,candidate
pilatus-krienseregg,Pilatus Krienseregg,Central Swiss Peaks,CH,46.89268,8.02853,1882,nature|viewpoint|mountain|family,Cable car or short hike | Panorama viewpoint stop | Mountain hut lunch,"https://maps.google.com/?q=46.89268,8.02853",https://www.sbb.ch/en,,candidate
rigi-scheidegg,Rigi Scheidegg,Central Swiss Peaks,CH,46.99477,8.16913,1677,mountain|family|nature|viewpoint,Cable car or short hike | Panorama viewpoint stop | Mountain hut lunch,"https://maps.google.com/?q=46.99477,8.16913",https://www.sbb.ch/en,,candidate
sattel-hochstuckli,Sattel Hochstuckli,Central Swiss Peaks,CH,46.91841,8.48533,2093,mountain|family|nature|viewpoint,Cable car or short hike | Panorama viewpoint stop | Mountain hut lunch,"https://maps.google.com/?q=46.91841,8.48533",https://www.sbb.ch/en,,candidate
schwagalp,Schwägalp,Central Swiss Peaks,CH,46.90413,8.12916,1428,viewpoint|nature|family,Cable car or short hike | Panorama viewpoint stop | Mountain hut lunch,"https://maps.google.com/?q=46.90413,8.12916",https://www.sbb.ch/en,,candidate
sorenberg-ridge,Sörenberg Ridge,Central Swiss Peaks,CH,47.18275,8.40410,1074,mountain|family|nature|viewpoint,Cable car or short hike | Panorama viewpoint stop | Mountain hut lunch,"https://maps.google.com/?q=47.18275,8.40410",https://www.sbb.ch/en,,candidate
stanserhorn,Stanserhorn,Central Swiss Peaks,CH,47.00238,8.29199,1354,mountain|family|nature|viewpoint,Cable car or short hike | Panorama viewpoint stop | Mountain hut lunch,"https://maps.google.com/?q=47.00238,8.29199",https://www.sbb.ch/en,,candidate
stoos-fronalp-traverse,Stoos Fronalp Traverse,Central Swiss Peaks,CH,47.03107,8.13502,1240,viewpoint|nature|family,Cable car or short hike | Panorama viewpoint stop | Mountain hut lunch,"https://maps.google.com/?q=47.03107,8.13502",https://www.sbb.ch/en,,candidate
stoos-ridge-walk,Stoos Ridge Walk,Central Swiss Peaks,CH,46.85504,8.08813,1440,family|mountain|viewpoint,Cable car or short hike | Panorama viewpoint stop | Mountain hut lunch,"https://maps.google.com/?q=46.85504,8.08813",https://www.sbb.ch/en,,candidate
titlis-panorama,Titlis Panorama,Central Swiss Peaks,CH,47.13917,8.45222,2231,nature|viewpoint|mountain|family,Cable car or short hike | Panorama viewpoint stop | Mountain hut lunch,"https://maps.google.com/?q=47.13917,8.45222",https://www.sbb.ch/en,,candidate
lucerne,Lucerne,Central Switzerland,CH,47.05020,8.30930,436,town|lake|food|family,Chapel Bridge & Water Tower photo stop | Old town walk & lion monument | Lake cruise (1h) or Rigi/Pilatus day trip | Dinner at a lakeside restaurant,"https://maps.google.com/?q=47.0502,8.3093",https://www.sbb.ch/en/buying/pages/fahrplan/fahrplan.xhtml?nach=Luzern,https://www.luzern.com/en/webcams/,baseline
pilatus,Pilatus,"Central Switzerland, NW/OW",CH,46.97900,8.25500,2128,nature|viewpoint|mountain|family,Gondola from Kriens or rack railway from Alpnachstad | Summit terrace and restaurant | Golden roundtrip option (boat + rail + gondola),"https://maps.google.com/?q=46.979,8.255",https://www.sbb.ch/en,,baseline
rigi,Rigi Kulm,"Central Switzerland, SZ",CH,47.05700,8.48500,1798,nature|viewpoint|mountain|family,Rack railway from Vitznau or Arth-Goldau | Summit panorama (360 degree view) | Multiple restaurants | Descent via different route,"https://maps.google.com/?q=47.057,8.485",https://www.sbb.ch/en,https://www.rigi.ch/en/Discover/Webcams,baseline
napf,Napf,"Emmental, BE/LU",CH,47.00300,7.94400,1408,nature|viewpoint|mountain,Hike from Mettlenalp (1h) or Luthern (2h) | 360-degree summit panorama | Berggasthaus Napf for Rosti,"https://maps.google.com/?q=47.003,7.944",https://www.sbb.ch/en,,baseline
arosa-weisshorn,Arosa Weisshorn,Engadin & Grisons,CH,46.38569,9.82317,1392,food|town|nature|viewpoint,Cable car or short hike | Panorama viewpoint stop | Mountain hut lunch,"https://maps.google.com/?q=46.38569,9.82317",https://www.sbb.ch/en,,candidate
bergun-alpine-view,Bergün Alpine View,Engadin & Grisons,CH,46.83842,9.60945,2500,town|nature|viewpoint|mountain,Cable car or short hike | Panorama viewpoint stop | Mountain hut lunch,"https://maps.google.com/?q=46.83842,9.60945",https://www.sbb.ch/en,,candidate
corvatsch,Corvatsch,Engadin & Grisons,CH,47.01480,9.35167,1089,mountain|food|nature|viewpoint,Cable car or short hike | Panorama viewpoint stop | Mountain hut lunch,"https://maps.google.com/?q=47.01480,9.35167",https://www.sbb.ch/en,,candidate
corviglia,Corviglia,Engadin & Grisons,CH,46.69878,9.50063,1394,food|mountain|viewpoint,Cable car or short hike | Panorama viewpoint stop | Mountain hut lunch,"https://maps.google.com/?q=46.69878,9.50063",https://www.sbb.ch/en,,candidate
davos-parsenn,Davos Parsenn,Engadin & Grisons,CH,46.93122,9.52681,2410,town|nature|mountain|food,Cable car or short hike | Panorama viewpoint stop | Mountain hut lunch,"https://maps.google.com/?q=46.93122,9.52681",https://www.sbb.ch/en,,candidate
diavolezza,Diavolezza,Engadin & Grisons,CH,46.41353,9.44055,2020,food|town|viewpoint|mountain,Cable car or short hike | Panorama viewpoint stop | Mountain hut lunch,"https://maps.google.com/?q=46.41353,9.44055",https://www.sbb.ch/en,,candidate
engadin-grisons-panorama-01,Engadin & Grisons Panorama 01,Engadin & Grisons,CH,46.81474,9.63327,1700,nature|town|mountain,Cable car or short hike | Panorama viewpoint stop | Mountain hut lunch,"https://maps.google.com/?q=46.81474,9.63327",https://www.sbb.ch/en,,candidate
engadin-grisons-panorama-02,Engadin & Grisons Panorama 02,Engadin & Grisons,CH,46.94662,9.67190,2446,food|town|viewpoint|mountain,Cable car or short hike | Panorama viewpoint stop | Mountain hut lunch,"https://maps.google.com/?q=46.94662,9.67190",https://www.sbb.ch/en,,candidate
engadin-grisons-panorama-03,Engadin & Grisons Panorama 03,Engadin & Grisons,CH,46.53495,9.37273,1367,mountain|viewpoint|nature,Cable car or short hike | Panorama viewpoint stop | Mountain hut lunch,"https://maps.google.com/?q=46.53495,9.37273",https://www.sbb.ch/en,,candidate
engadin-grisons-panorama-04,Engadin & Grisons Panorama 04,Engadin & Grisons,CH,46.89856,9.78789,1745,mountain|food|town|nature,Cable car or short hike | Panorama viewpoint stop | Mountain hut lunch,"https://maps.google.com/?q=46.89856,9.78789",https://www.sbb.ch/en,,candidate
engadin-grisons-panorama-05,Engadin & Grisons Panorama 05,Engadin & Grisons,CH,46.93337,10.02907,1855,town|food|viewpoint,Cable car or short hike | Panorama viewpoint stop | Mountain hut lunch,"https://maps.google.com/?q=46.93337,10.02907",https://www.sbb.ch/en,,candidate
engadin-grisons-panorama-06,Engadin & Grisons Panorama 06,Engadin & Grisons,CH,46.50246,9.53202,2429,town|nature|mountain|food,Cable car or short hike | Panorama viewpoint stop | Mountain hut lunch,"https://maps.google.com/?q=46.50246,9.53202",https://www.sbb.ch/en,,candidate
engadin-grisons-panorama-07,Engadin & Grisons Panorama 07,Engadin & Grisons,CH,47.05578,9.71577,1718,nature|town|food,Old town stroll | Local viewpoint | Lunch and easy return,"https://maps.google.com/?q=47.05578,9.71577",https://www.sbb.ch/en,,candidate
engadin-grisons-panorama-08,Engadin & Grisons Panorama 08,Engadin & Grisons,CH,46.47590,9.67013,1920,food|town|nature|viewpoint,Cable car or short hike | Panorama viewpoint stop | Mountain hut lunch,"https://maps.google.com/?q=46.47590,9.67013",https://www.sbb.ch/en,,candidate
engadin-grisons-panorama-09,Engadin & Grisons Panorama 09,Engadin & Grisons,CH,46.93777,9.91188,2280,mountain|viewpoint|town,Cable car or short hike | Panorama viewpoint stop | Mountain hut lunch,"https://maps.google.com/?q=46.93777,9.91188",https://www.sbb.ch/en,,candidate
engadin-grisons-panorama-10,Engadin & Grisons Panorama 10,Engadin & Grisons,CH,46.54578,9.34327,1463,town|food|mountain,Cable car or short hike | Panorama viewpoint stop | Mountain hut lunch,"https://maps.google.com/?q=46.54578,9.34327",https://www.sbb.ch/en,,candidate
engadin-grisons-panorama-11,Engadin & Grisons Panorama 11,Engadin & Grisons,CH,46.77311,9.82307,2110,nature|viewpoint|food|town,Cable car or short hike | Panorama viewpoint stop | Mountain hut lunch,"https://maps.google.com/?q=46.77311,9.82307",https://www.sbb.ch/en,,candidate
engadin-grisons-panorama-12,Engadin & Grisons Panorama 12,Engadin & Grisons,CH,46.39068,9.34161,1680,viewpoint|nature|food,Cable car or short hike | Panorama viewpoint stop | Mountain hut lunch,"https://maps.google.com/?q=46.39068,9.34161",https://www.sbb.ch/en,,candidate
engadin-grisons-panorama-13,Engadin & Grisons Panorama 13,Engadin & Grisons,CH,47.00323,9.76629,1420,town|nature|viewpoint|mountain,Cable car or short hike | Panorama viewpoint stop | Mountain hut lunch,"https://maps.google.com/?q=47.00323,9.76629",https://www.sbb.ch/en,,candidate
flims-crestasee,Flims Crestasee,Engadin & Grisons,CH,46.82316,9.55314,2341,viewpoint|mountain|food|town,Cable car or short hike | Panorama viewpoint stop | Mountain hut lunch,"https://maps.google.com/?q=46.82316,9.55314",https://www.sbb.ch/en,,candidate
lenzerheide-heights,Lenzerheide Heights,Engadin & Grisons,CH,46.96324,9.32873,2092,nature|town|food,Old town stroll | Local viewpoint | Lunch and easy return,"https://maps.google.com/?q=46.96324,9.32873",https://www.sbb.ch/en,,candidate
pizol-vista,Pizol Vista,Engadin & Grisons,CH,46.57762,9.53321,1936,mountain|viewpoint|nature,Cable car or short hike | Panorama viewpoint stop | Mountain hut lunch,"https://maps.google.com/?q=46.57762,9.53321",https://www.sbb.ch/en,,candidate
pontresina-view,Pontresina View,Engadin & Grisons,CH,46.55617,9.71651,2538,food|town|viewpoint|mountain,Cable car or short hike | Panorama viewpoint stop | Mountain hut lunch,"https://maps.google.com/?q=46.55617,9.71651",https://www.sbb.ch/en,,candidate
samedan-terrace,Samedan Terrace,Engadin & Grisons,CH,46.37934,10.03469,1617,mountain|viewpoint|town,Cable car or short hike | Panorama viewpoint stop | Mountain hut lunch,"https://maps.google.com/?q=46.37934,10.03469",https://www.sbb.ch/en,,candidate
samnaun-heights,Samnaun Heights,Engadin & Grisons,CH,46.59414,9.53753,1159,nature|town|food,Old town stroll | Local viewpoint | Lunch and easy return,"https://maps.google.com/?q=46.59414,9.53753",https://www.sbb.ch/en,,candidate
savognin-sun-deck,Savognin Sun Deck,Engadin & Grisons,CH,46.70138,9.54392,1606,mountain|viewpoint|nature,Cable car or short hike | Panorama viewpoint stop | Mountain hut lunch,"https://maps.google.com/?q=46.70138,9.54392",https://www.sbb.ch/en,,candidate
scuol-panorama,Scuol Panorama,Engadin & Grisons,CH,46.48626,9.75620,2529,viewpoint|nature|town,Cable car or short hike | Panorama viewpoint stop | Mountain hut lunch,"https://maps.google.com/?q=46.48626,9.75620",https://www.sbb.ch/en,,candidate
valbella-ridge,Valbella Ridge,Engadin & Grisons,CH,47.03655,9.92982,1213,town|nature|viewpoint|mountain,Cable car or short hike | Panorama viewpoint stop | Mountain hut lunch,"https://maps.google.com/?q=47.03655,9.92982",https://www.sbb.ch/en,,candidate
zuoz-plateau,Zuoz Plateau,Engadin & Grisons,CH,46.55677,9.75330,2392,viewpoint|mountain|food|town,Cable car or short hike | Panorama viewpoint stop | Mountain hut lunch,"https://maps.google.com/?q=46.55677,9.75330",https://www.sbb.ch/en,,candidate
muottas-muragl,Muottas Muragl,"Engadin, GR",CH,46.49900,9.94900,2456,nature|viewpoint|mountain|food,Funicular from Punt Muragl | Panoramic terrace with Engadin lakes view | Height trail to Alp Languard | Romantik Hotel dinner,"https://maps.google.com/?q=46.499,9.949",https://www.sbb.ch/en,,baseline
st-moritz,St. Moritz,"Engadin, GR",CH,46.49080,9.83550,1822,town|viewpoint|nature|food,Arrive via scenic train (Glacier Express route) | Lake St. Moritz walk | Muottas Muragl panorama viewpoint | Engadin café culture & Bündner Nusstorte,"https://maps.google.com/?q=46.4908,9.8355",https://www.sbb.ch/en/buying/pages/fahrplan/fahrplan.xhtml?nach=St.+Moritz,https://www.stmoritz.ch/en/live/webcams/,baseline
gruyeres,Gruyeres,"Fribourg, FR",CH,46.58400,7.08100,810,town|food|family,Medieval village walk | Castle visit | HR Giger Museum | Fondue at Chalet de Gruyeres | Cheese factory tour,"https://maps.google.com/?q=46.584,7.081",https://www.sbb.ch/en,,baseline
braunwald,Braunwald,"Glarus, GL",CH,46.94400,8.99900,1256,town|mountain|family|viewpoint,Funicular from Linthal | Car-free village walk | Panoramic views to Todi | Lunch at Cristal restaurant,"https://maps.google.com/?q=46.944,8.999",https://www.sbb.ch/en,,baseline
moléson,Moleson,"Gruyere, FR",CH,46.54900,7.01800,2002,nature|viewpoint|mountain|food,Cable car from Moleson-sur-Gruyeres | Summit 360 panorama | Cheese fondue in Gruyeres village | Gruyeres castle visit,"https://maps.google.com/?q=46.549,7.018",https://www.sbb.ch/en,,baseline
chasseral,Chasseral,"Jura, BE",CH,47.13200,7.05400,1607,nature|viewpoint|mountain,Summit panoramic viewpoint over the sea of fog | Ridge walk (30-60 min) | Lunch at Hotel Chasseral restaurant,"https://maps.google.com/?q=47.132,7.054",https://www.sbb.ch/en,https://www.chasseral.ch/webcam,baseline
vue-des-alpes,Vue des Alpes,"Jura, NE",CH,47.06000,6.87800,1283,nature|viewpoint,Pass road viewpoint | Short walks in both directions | Restaurant at the pass,"https://maps.google.com/?q=47.060,6.878",https://www.sbb.ch/en,,baseline
grenchenberg,Grenchenberg,"Jura, SO",CH,47.22100,7.37800,1348,nature|viewpoint,Drive up or hike from Grenchen | Panoramic views of Alps and fog sea | Berghaus Grenchenberg for lunch,"https://maps.google.com/?q=47.221,7.378",https://www.sbb.ch/en,,baseline
weissenstein,Weissenstein,"Jura, SO",CH,47.25200,7.51200,1395,nature|viewpoint|mountain|family,Gondola ride up from Oberdorf | Panorama trail along the ridge | Restaurant Sennhaus or Kurhaus Weissenstein,"https://maps.google.com/?q=47.252,7.512",https://www.sbb.ch/en,,baseline
la-dole,La Dole,"Jura, VD",CH,46.42500,6.10000,1677,nature|viewpoint|mountain,Hike from St-Cergue (1.5h) | Summit with radar dome and panorama | Views to Mont Blanc and Lake Geneva,"https://maps.google.com/?q=46.425,6.100",https://www.sbb.ch/en,,baseline
bulle-ridge,Bulle Ridge,Romandie Viewpoints,CH,46.45210,6.59064,622,food|viewpoint|mountain,Cable car or short hike | Panorama viewpoint stop | Mountain hut lunch,"https://maps.google.com/?q=46.45210,6.59064",https://www.sbb.ch/en,,candidate
charmey,Charmey,Romandie Viewpoints,CH,46.65183,6.51875,765,nature|viewpoint|food|town,Cable car or short hike | Panorama viewpoint stop | Mountain hut lunch,"https://maps.google.com/?q=46.65183,6.51875",https://www.sbb.ch/en,,candidate
diablerets-view,Diablerets View,Romandie Viewpoints,CH,46.56425,6.94001,1141,town|mountain|viewpoint|food,Cable car or short hike | Panorama viewpoint stop | Mountain hut lunch,"https://maps.google.com/?q=46.56425,6.94001",https://www.sbb.ch/en,,candidate
fribourg-ramparts,Fribourg Ramparts,Romandie Viewpoints,CH,46.54234,7.00371,1628,viewpoint|food|town|mountain,Cable car or short hike | Panorama viewpoint stop | Mountain hut lunch,"https://maps.google.com/?q=46.54234,7.00371",https://www.sbb.ch/en,,candidate
glacier-3000-base,Glacier 3000 Base,Romandie Viewpoints,CH,46.76597,6.76680,1500,food|town|nature|viewpoint,Cable car or short hike | Panorama viewpoint stop | Mountain hut lunch,"https://maps.google.com/?q=46.76597,6.76680",https://www.sbb.ch/en,,candidate
jaman-pass,Jaman Pass,Romandie Viewpoints,CH,46.35044,6.90269,1472,food|town|mountain|nature,Cable car or short hike | Panorama viewpoint stop | Mountain hut lunch,"https://maps.google.com/?q=46.35044,6.90269",https://www.sbb.ch/en,,candidate
jaunpass-vista,Jaunpass Vista,Romandie Viewpoints,CH,46.81948,6.62145,1898,food|town|mountain|nature,Cable car or short hike | Panorama viewpoint stop | Mountain hut lunch,"https://maps.google.com/?q=46.81948,6.62145",https://www.sbb.ch/en,,candidate
lavaux-terraces,Lavaux Terraces,Romandie Viewpoints,CH,46.68472,6.69894,1382,viewpoint|food|town|mountain,Cable car or short hike | Panorama viewpoint stop | Mountain hut lunch,"https://maps.google.com/?q=46.68472,6.69894",https://www.sbb.ch/en,,candidate
les-pleiades,Les Pléiades,Romandie Viewpoints,CH,46.80879,7.04547,1853,town|food|nature,Old town stroll | Local viewpoint | Lunch and easy return,"https://maps.google.com/?q=46.80879,7.04547",https://www.sbb.ch/en,,candidate
mont-pelerin,Mont Pèlerin,Romandie Viewpoints,CH,46.40799,6.54029,1557,town|food|viewpoint,Cable car or short hike | Panorama viewpoint stop | Mountain hut lunch,"https://maps.google.com/?q=46.40799,6.54029",https://www.sbb.ch/en,,candidate
morges-lakeside,Morges Lakeside,Romandie Viewpoints,CH,46.49813,6.66311,650,nature|mountain|food,Cable car or short hike | Panorama viewpoint stop | Mountain hut lunch,"https://maps.google.com/?q=46.49813,6.66311",https://www.sbb.ch/en,,candidate
neuchatel-chaumont-trail,Neuchâtel Chaumont Trail,Romandie Viewpoints,CH,46.32973,6.45585,1987,nature|mountain|food,Cable car or short hike | Panorama viewpoint stop | Mountain hut lunch,"https://maps.google.com/?q=46.32973,6.45585",https://www.sbb.ch/en,,candidate
romandie-viewpoints-panorama-01,Romandie Viewpoints Panorama 01,Romandie Viewpoints,CH,46.49867,6.75614,1780,town|food|nature,Old town stroll | Local viewpoint | Lunch and easy return,"https://maps.google.com/?q=46.49867,6.75614",https://www.sbb.ch/en,,candidate
romandie-viewpoints-panorama-02,Romandie Viewpoints Panorama 02,Romandie Viewpoints,CH,46.66112,7.03439,1552,town|mountain|viewpoint|food,Cable car or short hike | Panorama viewpoint stop | Mountain hut lunch,"https://maps.google.com/?q=46.66112,7.03439",https://www.sbb.ch/en,,candidate
romandie-viewpoints-panorama-03,Romandie Viewpoints Panorama 03,Romandie Viewpoints,CH,46.68910,6.64292,1598,mountain|town|food,Cable car or short hike | Panorama viewpoint stop | Mountain hut lunch,"https://maps.google.com/?q=46.68910,6.64292",https://www.sbb.ch/en,,candidate
romandie-viewpoints-panorama-04,Romandie Viewpoints Panorama 04,Romandie Viewpoints,CH,46.77164,6.64593,1152,nature|viewpoint|food|town,Cable car or short hike | Panorama viewpoint stop | Mountain hut lunch,"https://maps.google.com/?q=46.77164,6.64593",https://www.sbb.ch/en,,candidate
romandie-viewpoints-panorama-05,Romandie Viewpoints Panorama 05,Romandie Viewpoints,CH,46.76430,6.88253,1907,food|viewpoint|mountain,Cable car or short hike | Panorama viewpoint stop | Mountain hut lunch,"https://maps.google.com/?q=46.76430,6.88253",https://www.sbb.ch/en,,candidate
romandie-viewpoints-panorama-06,Romandie Viewpoints Panorama 06,Romandie Viewpoints,CH,46.36491,6.69466,691,nature|viewpoint|town|mountain,Cable car or short hike | Panorama viewpoint stop | Mountain hut lunch,"https://maps.google.com/?q=46.36491,6.69466",https://www.sbb.ch/en,,candidate
romandie-viewpoints-panorama-07,Romandie Viewpoints Panorama 07,Romandie Viewpoints,CH,46.48308,6.51782,881,town|food|viewpoint,Cable car or short hike | Panorama viewpoint stop | Mountain hut lunch,"https://maps.google.com/?q=46.48308,6.51782",https://www.sbb.ch/en,,candidate
romandie-viewpoints-panorama-08,Romandie Viewpoints Panorama 08,Romandie Viewpoints,CH,46.39256,6.99063,1120,town|mountain|nature|viewpoint,Cable car or short hike | Panorama viewpoint stop | Mountain hut lunch,"https://maps.google.com/?q=46.39256,6.99063",https://www.sbb.ch/en,,candidate
romandie-viewpoints-panorama-09,Romandie Viewpoints Panorama 09,Romandie Viewpoints,CH,46.52358,6.69444,624,viewpoint|nature|town,Cable car or short hike | Panorama viewpoint stop | Mountain hut lunch,"https://maps.google.com/?q=46.52358,6.69444",https://www.sbb.ch/en,,candidate
romandie-viewpoints-panorama-10,Romandie Viewpoints Panorama 10,Romandie Viewpoints,CH,46.47384,6.61008,1871,viewpoint|nature|mountain,Cable car or short hike | Panorama viewpoint stop | Mountain hut lunch,"https://maps.google.com/?q=46.47384,6.61008",https://www.sbb.ch/en,,candidate
romandie-viewpoints-panorama-11,Romandie Viewpoints Panorama 11,Romandie Viewpoints,CH,46.36649,6.80023,1164,nature|viewpoint|town|mountain,Cable car or short hike | Panorama viewpoint stop | Mountain hut lunch,"https://maps.google.com/?q=46.36649,6.80023",https://www.sbb.ch/en,,candidate
romandie-viewpoints-panorama-12,Romandie Viewpoints Panorama 12,Romandie Viewpoints,CH,46.40679,6.54614,1911,food|viewpoint|mountain,Cable car or short hike | Panorama viewpoint stop | Mountain hut lunch,"https://maps.google.com/?q=46.40679,6.54614",https://www.sbb.ch/en,,candidate
villars,Villars,Romandie Viewpoints,CH,46.46955,6.78735,2190,mountain|nature|food|town,Cable car or short hike | Panorama viewpoint stop | Mountain hut lunch,"https://maps.google.com/?q=46.46955,6.78735",https://www.sbb.ch/en,,candidate
yverdon-heights,Yverdon Heights,Romandie Viewpoints,CH,46.39108,6.91613,1633,food|viewpoint|nature,Cable car or short hike | Panorama viewpoint stop | Mountain hut lunch,"https://maps.google.com/?q=46.39108,6.91613",https://www.sbb.ch/en,,candidate
fronalpstock,Fronalpstock,"Schwyz, SZ",CH,46.97700,8.62700,1922,nature|viewpoint|mountain,Cable car from Stoos | Panoramic ridge walk | View of 10 lakes | Restaurant Fronalpstock,"https://maps.google.com/?q=46.977,8.627",https://www.sbb.ch/en,,baseline
stoos,Stoos,"Schwyz, SZ",CH,46.97700,8.65400,1305,town|mountain|family|viewpoint,World's steepest funicular (110%) | Car-free village stroll | Fronalpstock cable car for panorama | Restaurant Stoos Lodge,"https://maps.google.com/?q=46.977,8.654",https://www.sbb.ch/en,,baseline
balmberg,Balmberg,Swiss Jura Ridge,CH,47.19223,7.18588,1188,nature|mountain|family,Cable car or short hike | Panorama viewpoint stop | Mountain hut lunch,"https://maps.google.com/?q=47.19223,7.18588",https://www.sbb.ch/en,,candidate
chaumont,Chaumont,Swiss Jura Ridge,CH,47.25635,7.12480,1583,mountain|nature|viewpoint|family,Cable car or short hike | Panorama viewpoint stop | Mountain hut lunch,"https://maps.google.com/?q=47.25635,7.12480",https://www.sbb.ch/en,,candidate
creux-du-van,Creux du Van,Swiss Jura Ridge,CH,47.21950,7.27347,1561,mountain|nature|viewpoint|family,Cable car or short hike | Panorama viewpoint stop | Mountain hut lunch,"https://maps.google.com/?q=47.21950,7.27347",https://www.sbb.ch/en,,candidate
hasenmatt,Hasenmatt,Swiss Jura Ridge,CH,47.13794,7.17378,1622,mountain|nature|viewpoint|family,Cable car or short hike | Panorama viewpoint stop | Mountain hut lunch,"https://maps.google.com/?q=47.13794,7.17378",https://www.sbb.ch/en,,candidate
les-ordons,Les Ordons,Swiss Jura Ridge,CH,47.30430,7.14162,1465,nature|mountain|family,Cable car or short hike | Panorama viewpoint stop | Mountain hut lunch,"https://maps.google.com/?q=47.30430,7.14162",https://www.sbb.ch/en,,candidate
mont-crosin,Mont Crosin,Swiss Jura Ridge,CH,47.13131,7.23693,1442,mountain|nature|viewpoint|family,Cable car or short hike | Panorama viewpoint stop | Mountain hut lunch,"https://maps.google.com/?q=47.13131,7.23693",https://www.sbb.ch/en,,candidate
mont-raimeux,Mont Raimeux,Swiss Jura Ridge,CH,47.13906,7.03572,1133,nature|mountain|family,Cable car or short hike | Panorama viewpoint stop | Mountain hut lunch,"https://maps.google.com/?q=47.13906,7.03572",https://www.sbb.ch/en,,candidate
mont-soleil,Mont Soleil,Swiss Jura Ridge,CH,47.19436,7.17783,1476,mountain|nature|viewpoint|family,Cable car or short hike | Panorama viewpoint stop | Mountain hut lunch,"https://maps.google.com/?q=47.19436,7.17783",https://www.sbb.ch/en,,candidate
passwang,Passwang,Swiss Jura Ridge,CH,47.38122,7.34446,1190,family|viewpoint|nature,Cable car or short hike | Panorama viewpoint stop | Mountain hut lunch,"https://maps.google.com/?q=47.38122,7.34446",https://www.sbb.ch/en,,candidate
pierre-pertuis,Pierre-Pertuis,Swiss Jura Ridge,CH,47.10416,7.44699,979,nature|mountain|family,Cable car or short hike | Panorama viewpoint stop | Mountain hut lunch,"https://maps.google.com/?q=47.10416,7.44699",https://www.sbb.ch/en,,candidate
soleil-de-la-tete,Soleil de la Tête,Swiss Jura Ridge,CH,47.15317,7.37248,970,viewpoint|family|mountain|nature,Cable car or short hike | Panorama viewpoint stop | Mountain hut lunch,"https://maps.google.com/?q=47.15317,7.37248",https://www.sbb.ch/en,,candidate
swiss-jura-ridge-panorama-01,Swiss Jura Ridge Panorama 01,Swiss Jura Ridge,CH,47.22728,7.23646,1174,nature|mountain|family,Cable car or short hike | Panorama viewpoint stop | Mountain hut lunch,"https://maps.google.com/?q=47.22728,7.23646",https://www.sbb.ch/en,,candidate
swiss-jura-ridge-panorama-02,Swiss Jura Ridge Panorama 02,Swiss Jura Ridge,CH,47.07800,7.35185,1114,viewpoint|family|mountain|nature,Cable car or short hike | Panorama viewpoint stop | Mountain hut lunch,"https://maps.google.com/?q=47.07800,7.35185",https://www.sbb.ch/en,,candidate
swiss-jura-ridge-panorama-03,Swiss Jura Ridge Panorama 03,Swiss Jura Ridge,CH,47.27982,7.29797,1391,family|viewpoint|nature,Cable car or short hike | Panorama viewpoint stop | Mountain hut lunch,"https://maps.google.com/?q=47.27982,7.29797",https://www.sbb.ch/en,,candidate
swiss-jura-ridge-panorama-04,Swiss Jura Ridge Panorama 04,Swiss Jura Ridge,CH,47.25008,7.38210,1421,mountain|nature|viewpoint|family,Cable car or short hike | Panorama viewpoint stop | Mountain hut lunch,"https://maps.google.com/?q=47.25008,7.38210",https://www.sbb.ch/en,,candidate
swiss-jura-ridge-panorama-05,Swiss Jura Ridge Panorama 05,Swiss Jura Ridge,CH,47.17465,7.35190,1122,nature|mountain|family,Cable car or short hike | Panorama viewpoint stop | Mountain hut lunch,"https://maps.google.com/?q=47.17465,7.35190",https://www.sbb.ch/en,,candidate
swiss-jura-ridge-panorama-06,Swiss Jura Ridge Panorama 06,Swiss Jura Ridge,CH,47.06534,7.36120,1294,viewpoint|family|mountain|nature,Cable car or short hike | Panorama viewpoint stop | Mountain hut lunch,"https://maps.google.com/?q=47.06534,7.36120",https://www.sbb.ch/en,,candidate
swiss-jura-ridge-panorama-07,Swiss Jura Ridge Panorama 07,Swiss Jura Ridge,CH,47.15421,7.15532,1146,family|viewpoint|nature,Cable car or short hike | Panorama viewpoint stop | Mountain hut lunch,"https://maps.google.com/?q=47.15421,7.15532",https://www.sbb.ch/en,,candidate
swiss-jura-ridge-panorama-08,Swiss Jura Ridge Panorama 08,Swiss Jura Ridge,CH,47.28132,7.44509,1610,mountain|nature|viewpoint|family,Cable car or short hike | Panorama viewpoint stop | Mountain hut lunch,"https://maps.google.com/?q=47.28132,7.44509",https://www.sbb.ch/en,,candidate
swiss-jura-ridge-panorama-09,Swiss Jura Ridge Panorama 09,Swiss Jura Ridge,CH,47.32776,7.26635,1373,nature|mountain|family,Cable car or short hike | Panorama viewpoint stop | Mountain hut lunch,"https://maps.google.com/?q=47.32776,7.26635",https://www.sbb.ch/en,,candidate
swiss-jura-ridge-panorama-10,Swiss Jura Ridge Panorama 10,Swiss Jura Ridge,CH,47.09740,7.42982,1688,family|viewpoint|nature,Cable car or short hike | Panorama viewpoint stop | Mountain hut lunch,"https://maps.google.com/?q=47.09740,7.42982",https://www.sbb.ch/en,,candidate
swiss-jura-ridge-panorama-11,Swiss Jura Ridge Panorama 11,Swiss Jura Ridge,CH,47.13577,7.35122,1394,viewpoint|family|mountain|nature,Cable car or short hike | Panorama viewpoint stop | Mountain hut lunch,"https://maps.google.com/?q=47.13577,7.35122",https://www.sbb.ch/en,,candidate
swiss-jura-ridge-panorama-12,Swiss Jura Ridge Panorama 12,Swiss Jura Ridge,CH,47.31351,7.41450,1147,nature|mountain|family,Cable car or short hike | Panorama viewpoint stop | Mountain hut lunch,"https://maps.google.com/?q=47.31351,7.41450",https://www.sbb.ch/en,,candidate
swiss-jura-ridge-panorama-13,Swiss Jura Ridge Panorama 13,Swiss Jura Ridge,CH,47.28296,7.45343,1162,mountain|nature|viewpoint|family,Cable car or short hike | Panorama viewpoint stop | Mountain hut lunch,"https://maps.google.com/?q=47.28296,7.45343",https://www.sbb.ch/en,,candidate
wasserfallen,Wasserfallen,Swiss Jura Ridge,CH,47.21338,7.08622,1039,mountain|nature|viewpoint|family,Cable car or short hike | Panorama viewpoint stop | Mountain hut lunch,"https://maps.google.com/?q=47.21338,7.08622",https://www.sbb.ch/en,,candidate
alpnachstad,Alpnachstad,Swiss Lake Towns,CH,46.58959,8.01003,675,lake|town|viewpoint|family,Cable car or short hike | Panorama viewpoint stop | Mountain hut lunch,"https://maps.google.com/?q=46.58959,8.01003",https://www.sbb.ch/en,,candidate
appenzell-view,Appenzell View,Swiss Lake Towns,CH,46.72300,8.50233,1106,lake|town|viewpoint|family,Cable car or short hike | Panorama viewpoint stop | Mountain hut lunch,"https://maps.google.com/?q=46.72300,8.50233",https://www.sbb.ch/en,,candidate
arth-goldau-vista,Arth-Goldau Vista,Swiss Lake Towns,CH,46.56747,8.46600,430,viewpoint|town|lake,Cable car or short hike | Panorama viewpoint stop | Mountain hut lunch,"https://maps.google.com/?q=46.56747,8.46600",https://www.sbb.ch/en,,candidate
biel-lakeside,Biel Lakeside,Swiss Lake Towns,CH,46.72962,8.49041,1124,town|viewpoint|family|food,Cable car or short hike | Panorama viewpoint stop | Mountain hut lunch,"https://maps.google.com/?q=46.72962,8.49041",https://www.sbb.ch/en,,candidate
brunnen,Brunnen,Swiss Lake Towns,CH,46.75523,8.06955,536,lake|food|viewpoint,Cable car or short hike | Panorama viewpoint stop | Mountain hut lunch,"https://maps.google.com/?q=46.75523,8.06955",https://www.sbb.ch/en,,candidate
luzern-seebad,Luzern Seebad,Swiss Lake Towns,CH,46.94806,7.84911,1000,town|viewpoint|family|food,Cable car or short hike | Panorama viewpoint stop | Mountain hut lunch,"https://maps.google.com/?q=46.94806,7.84911",https://www.sbb.ch/en,,candidate
meiringen,Meiringen,Swiss Lake Towns,CH,46.97706,8.17337,1058,family|viewpoint|lake,Cable car or short hike | Panorama viewpoint stop | Mountain hut lunch,"https://maps.google.com/?q=46.97706,8.17337",https://www.sbb.ch/en,,candidate
montreux-lakeside,Montreux Lakeside,Swiss Lake Towns,CH,46.85786,7.91447,963,viewpoint|family|lake|town,Cable car or short hike | Panorama viewpoint stop | Mountain hut lunch,"https://maps.google.com/?q=46.85786,7.91447",https://www.sbb.ch/en,,candidate
murten,Murten,Swiss Lake Towns,CH,46.95742,8.26140,862,viewpoint|family|lake|town,Cable car or short hike | Panorama viewpoint stop | Mountain hut lunch,"https://maps.google.com/?q=46.95742,8.26140",https://www.sbb.ch/en,,candidate
rapperswil-lakeside,Rapperswil Lakeside,Swiss Lake Towns,CH,47.09638,8.12697,925,family|viewpoint|lake,Cable car or short hike | Panorama viewpoint stop | Mountain hut lunch,"https://maps.google.com/?q=47.09638,8.12697",https://www.sbb.ch/en,,candidate
sarnen,Sarnen,Swiss Lake Towns,CH,46.67438,8.12363,1090,lake|town|viewpoint|food,Cable car or short hike | Panorama viewpoint stop | Mountain hut lunch,"https://maps.google.com/?q=46.67438,8.12363",https://www.sbb.ch/en,,candidate
spiez,Spiez,Swiss Lake Towns,CH,46.57159,8.15372,1161,family|food|town|viewpoint,Cable car or short hike | Panorama viewpoint stop | Mountain hut lunch,"https://maps.google.com/?q=46.57159,8.15372",https://www.sbb.ch/en,,candidate
stein-am-rhein,Stein am Rhein,Swiss Lake Towns,CH,46.97929,7.88424,873,food|lake|town|viewpoint,Cable car or short hike | Panorama viewpoint stop | Mountain hut lunch,"https://maps.google.com/?q=46.97929,7.88424",https://www.sbb.ch/en,,candidate
swiss-lake-towns-panorama-01,Swiss Lake Towns Panorama 01,Swiss Lake Towns,CH,46.57103,8.13488,1061,viewpoint|family|food|lake,Cable car or short hike | Panorama viewpoint stop | Mountain hut lunch,"https://maps.google.com/?q=46.57103,8.13488",https://www.sbb.ch/en,,candidate
swiss-lake-towns-panorama-02,Swiss Lake Towns Panorama 02,Swiss Lake Towns,CH,46.92709,7.95472,1034,lake|food|family,Lakeside walk | Viewpoint detour | Café break and return,"https://maps.google.com/?q=46.92709,7.95472",https://www.sbb.ch/en,,candidate
swiss-lake-towns-panorama-03,Swiss Lake Towns Panorama 03,Swiss Lake Towns,CH,47.28366,7.90907,792,viewpoint|family|lake|town,Cable car or short hike | Panorama viewpoint stop | Mountain hut lunch,"https://maps.google.com/?q=47.28366,7.90907",https://www.sbb.ch/en,,candidate
swiss-lake-towns-panorama-04,Swiss Lake Towns Panorama 04,Swiss Lake Towns,CH,46.95107,8.28987,532,town|lake|family,Lakeside walk | Viewpoint detour | Café break and return,"https://maps.google.com/?q=46.95107,8.28987",https://www.sbb.ch/en,,candidate
swiss-lake-towns-panorama-05,Swiss Lake Towns Panorama 05,Swiss Lake Towns,CH,47.20313,8.31671,734,town|viewpoint|family|food,Cable car or short hike | Panorama viewpoint stop | Mountain hut lunch,"https://maps.google.com/?q=47.20313,8.31671",https://www.sbb.ch/en,,candidate
swiss-lake-towns-panorama-06,Swiss Lake Towns Panorama 06,Swiss Lake Towns,CH,47.24405,8.13066,795,viewpoint|town|lake,Cable car or short hike | Panorama viewpoint stop | Mountain hut lunch,"https://maps.google.com/?q=47.24405,8.13066",https://www.sbb.ch/en,,candidate
swiss-lake-towns-panorama-07,Swiss Lake Towns Panorama 07,Swiss Lake Towns,CH,47.20100,7.78116,527,town|viewpoint|food|lake,Cable car or short hike | Panorama viewpoint stop | Mountain hut lunch,"https://maps.google.com/?q=47.20100,7.78116",https://www.sbb.ch/en,,candidate
swiss-lake-towns-panorama-08,Swiss Lake Towns Panorama 08,Swiss Lake Towns,CH,47.03226,8.20055,1052,family|viewpoint|lake,Cable car or short hike | Panorama viewpoint stop | Mountain hut lunch,"https://maps.google.com/?q=47.03226,8.20055",https://www.sbb.ch/en,,candidate
swiss-lake-towns-panorama-09,Swiss Lake Towns Panorama 09,Swiss Lake Towns,CH,47.01820,7.92802,963,lake|town|viewpoint|family,Cable car or short hike | Panorama viewpoint stop | Mountain hut lunch,"https://maps.google.com/?q=47.01820,7.92802",https://www.sbb.ch/en,,candidate
swiss-lake-towns-panorama-10,Swiss Lake Towns Panorama 10,Swiss Lake Towns,CH,46.77281,8.38009,1029,family|food|town|viewpoint,Cable car or short hike | Panorama viewpoint stop | Mountain hut lunch,"https://maps.google.com/?q=46.77281,8.38009",https://www.sbb.ch/en,,candidate
swiss-lake-towns-panorama-11,Swiss Lake Towns Panorama 11,Swiss Lake Towns,CH,47.21547,8.42488,893,town|lake|food,Lakeside walk | Viewpoint detour | Café break and return,"https://maps.google.com/?q=47.21547,8.42488",https://www.sbb.ch/en,,candidate
swiss-lake-towns-panorama-12,Swiss Lake Towns Panorama 12,Swiss Lake Towns,CH,47.10697,8.01492,920,viewpoint|family|food|lake,Cable car or short hike | Panorama viewpoint stop | Mountain hut lunch,"https://maps.google.com/?q=47.10697,8.01492",https://www.sbb.ch/en,,candidate
vevey-terraces,Vevey Terraces,Swiss Lake Towns,CH,47.17503,8.30094,622,family|food|lake|town,Lakeside walk | Viewpoint detour | Café break and return,"https://maps.google.com/?q=47.17503,8.30094",https://www.sbb.ch/en,,candidate
vitznau,Vitznau,Swiss Lake Towns,CH,46.96388,8.39856,533,viewpoint|family|lake|town,Cable car or short hike | Panorama viewpoint stop | Mountain hut lunch,"https://maps.google.com/?q=46.96388,8.39856",https://www.sbb.ch/en,,candidate
weggis,Weggis,Swiss Lake Towns,CH,46.63834,8.55601,465,town|lake|family,Lakeside walk | Viewpoint detour | Café break and return,"https://maps.google.com/?q=46.63834,8.55601",https://www.sbb.ch/en,,candidate
bad-ragaz,Bad Ragaz,Swiss Thermal & Family,CH,47.09461,8.09481,617,nature|town|family|thermal,Thermal bath session | Scenic promenade | Terrace meal before return,"https://maps.google.com/?q=47.09461,8.09481",https://www.sbb.ch/en,,candidate
baden-limmat-thermal,Baden Limmat Thermal,Swiss Thermal & Family,CH,46.65581,8.38893,881,thermal|food|nature|town,Thermal bath session | Scenic promenade | Terrace meal before return,"https://maps.google.com/?q=46.65581,8.38893",https://www.sbb.ch/en,,candidate
braunwald-family-trail,Braunwald Family Trail,Swiss Thermal & Family,CH,46.51967,7.75882,1000,nature|food|family,Scenic stop | Short walk | Coffee or lunch and return,"https://maps.google.com/?q=46.51967,7.75882",https://www.sbb.ch/en,,candidate
brigerbad,Brigerbad,Swiss Thermal & Family,CH,46.64316,7.71556,639,nature|food|thermal,Thermal bath session | Scenic promenade | Terrace meal before return,"https://maps.google.com/?q=46.64316,7.71556",https://www.sbb.ch/en,,candidate
charmey-bains,Charmey Bains,Swiss Thermal & Family,CH,46.44881,8.17653,1054,family|thermal|food|nature,Thermal bath session | Scenic promenade | Terrace meal before return,"https://maps.google.com/?q=46.44881,8.17653",https://www.sbb.ch/en,,candidate
hasliberg-muggestutz,Hasliberg Muggestutz,Swiss Thermal & Family,CH,46.65142,8.23653,827,food|nature|town|family,Old town stroll | Local viewpoint | Lunch and easy return,"https://maps.google.com/?q=46.65142,8.23653",https://www.sbb.ch/en,,candidate
lavey-les-bains,Lavey-les-Bains,Swiss Thermal & Family,CH,46.90067,8.43872,818,food|thermal|family,Thermal bath session | Scenic promenade | Terrace meal before return,"https://maps.google.com/?q=46.90067,8.43872",https://www.sbb.ch/en,,candidate
saas-grund-family,Saas-Grund Family,Swiss Thermal & Family,CH,46.73334,7.57984,942,town|nature|food,Old town stroll | Local viewpoint | Lunch and easy return,"https://maps.google.com/?q=46.73334,7.57984",https://www.sbb.ch/en,,candidate
schinznach-bad,Schinznach Bad,Swiss Thermal & Family,CH,47.03766,8.04913,862,town|family|thermal|food,Thermal bath session | Scenic promenade | Terrace meal before return,"https://maps.google.com/?q=47.03766,8.04913",https://www.sbb.ch/en,,candidate
scuol-bogn,Scuol Bogn,Swiss Thermal & Family,CH,46.99711,8.37647,1273,town|family|food|nature,Old town stroll | Local viewpoint | Lunch and easy return,"https://maps.google.com/?q=46.99711,8.37647",https://www.sbb.ch/en,,candidate
sorenberg-family-alps,Sörenberg Family Alps,Swiss Thermal & Family,CH,46.84430,8.40477,1350,thermal|food|nature|town,Thermal bath session | Scenic promenade | Terrace meal before return,"https://maps.google.com/?q=46.84430,8.40477",https://www.sbb.ch/en,,candidate
swiss-thermal-family-panorama-01,Swiss Thermal & Family Panorama 01,Swiss Thermal & Family,CH,47.03398,8.14980,926,town|nature|food,Old town stroll | Local viewpoint | Lunch and easy return,"https://maps.google.com/?q=47.03398,8.14980",https://www.sbb.ch/en,,candidate
swiss-thermal-family-panorama-02,Swiss Thermal & Family Panorama 02,Swiss Thermal & Family,CH,46.56113,8.30133,872,food|nature|town|family,Old town stroll | Local viewpoint | Lunch and easy return,"https://maps.google.com/?q=46.56113,8.30133",https://www.sbb.ch/en,,candidate
swiss-thermal-family-panorama-03,Swiss Thermal & Family Panorama 03,Swiss Thermal & Family,CH,47.08152,8.16478,1325,town|nature|thermal,Thermal bath session | Scenic promenade | Terrace meal before return,"https://maps.google.com/?q=47.08152,8.16478",https://www.sbb.ch/en,,candidate
swiss-thermal-family-panorama-04,Swiss Thermal & Family Panorama 04,Swiss Thermal & Family,CH,46.50693,7.83183,821,family|thermal|nature|town,Thermal bath session | Scenic promenade | Terrace meal before return,"https://maps.google.com/?q=46.50693,7.83183",https://www.sbb.ch/en,,candidate
swiss-thermal-family-panorama-05,Swiss Thermal & Family Panorama 05,Swiss Thermal & Family,CH,46.49142,8.27936,1574,thermal|family|town,Thermal bath session | Scenic promenade | Terrace meal before return,"https://maps.google.com/?q=46.49142,8.27936",https://www.sbb.ch/en,,candidate
swiss-thermal-family-panorama-06,Swiss Thermal & Family Panorama 06,Swiss Thermal & Family,CH,46.51681,7.63233,815,town|family|thermal|food,Thermal bath session | Scenic promenade | Terrace meal before return,"https://maps.google.com/?q=46.51681,7.63233",https://www.sbb.ch/en,,candidate
swiss-thermal-family-panorama-07,Swiss Thermal & Family Panorama 07,Swiss Thermal & Family,CH,47.06096,8.52218,1006,family|town|food,Old town stroll | Local viewpoint | Lunch and easy return,"https://maps.google.com/?q=47.06096,8.52218",https://www.sbb.ch/en,,candidate
swiss-thermal-family-panorama-08,Swiss Thermal & Family Panorama 08,Swiss Thermal & Family,CH,46.49746,8.20155,1260,thermal|food|town|family,Thermal bath session | Scenic promenade | Terrace meal before return,"https://maps.google.com/?q=46.49746,8.20155",https://www.sbb.ch/en,,candidate
swiss-thermal-family-panorama-09,Swiss Thermal & Family Panorama 09,Swiss Thermal & Family,CH,46.38519,7.54156,1491,food|thermal|family,Thermal bath session | Scenic promenade | Terrace meal before return,"https://maps.google.com/?q=46.38519,7.54156",https://www.sbb.ch/en,,candidate
swiss-thermal-family-panorama-10,Swiss Thermal & Family Panorama 10,Swiss Thermal & Family,CH,46.75622,7.99694,393,town|nature|thermal,Thermal bath session | Scenic promenade | Terrace meal before return,"https://maps.google.com/?q=46.75622,7.99694",https://www.sbb.ch/en,,candidate
swiss-thermal-family-panorama-11,Swiss Thermal & Family Panorama 11,Swiss Thermal & Family,CH,47.15167,8.11941,1418,family|thermal|food|nature,Thermal bath session | Scenic promenade | Terrace meal before return,"https://maps.google.com/?q=47.15167,8.11941",https://www.sbb.ch/en,,candidate
swiss-thermal-family-panorama-12,Swiss Thermal & Family Panorama 12,Swiss Thermal & Family,CH,46.62488,7.85716,902,town|nature|food,Old town stroll | Local viewpoint | Lunch and easy return,"https://maps.google.com/?q=46.62488,7.85716",https://www.sbb.ch/en,,candidate
vals-thermal,Vals Thermal,Swiss Thermal & Family,CH,47.13365,8.22270,818,family|town|food,Old town stroll | Local viewpoint | Lunch and easy return,"https://maps.google.com/?q=47.13365,8.22270",https://www.sbb.ch/en,,candidate
yverdon-les-bains,Yverdon-les-Bains,Swiss Thermal & Family,CH,47.14954,8.42252,1378,family|town|nature,Old town stroll | Local viewpoint | Lunch and easy return,"https://maps.google.com/?q=47.14954,8.42252",https://www.sbb.ch/en,,candidate
zurzach-thermal,Zurzach Thermal,Swiss Thermal & Family,CH,46.52256,7.86679,1227,nature|town|thermal|food,Thermal bath session | Scenic promenade | Terrace meal before return,"https://maps.google.com/?q=46.52256,7.86679",https://www.sbb.ch/en,,candidate
airolo-sun-deck,Airolo Sun Deck,Ticino Sun Terrace,CH,46.05486,8.94361,505,family|town|lake,Lakeside walk | Viewpoint detour | Café break and return,"https://maps.google.com/?q=46.05486,8.94361",https://www.sbb.ch/en,,candidate
ascona-promenade,Ascona Promenade,Ticino Sun Terrace,CH,46.11703,9.04369,1323,mountain|food|lake,Cable car or short hike | Panorama viewpoint stop | Mountain hut lunch,"https://maps.google.com/?q=46.11703,9.04369",https://www.sbb.ch/en,,candidate
bellinzona-castles,Bellinzona Castles,Ticino Sun Terrace,CH,46.13635,9.12641,510,food|mountain|town|family,Cable car or short hike | Panorama viewpoint stop | Mountain hut lunch,"https://maps.google.com/?q=46.13635,9.12641",https://www.sbb.ch/en,,candidate
bosco-gurin,Bosco Gurin,Ticino Sun Terrace,CH,46.00431,9.24439,2035,food|mountain|viewpoint|lake,Cable car or short hike | Panorama viewpoint stop | Mountain hut lunch,"https://maps.google.com/?q=46.00431,9.24439",https://www.sbb.ch/en,,candidate
cardada,Cardada,Ticino Sun Terrace,CH,46.22676,8.97101,1183,food|mountain|viewpoint|lake,Cable car or short hike | Panorama viewpoint stop | Mountain hut lunch,"https://maps.google.com/?q=46.22676,8.97101",https://www.sbb.ch/en,,candidate
carona-outlook,Carona Outlook,Ticino Sun Terrace,CH,45.87362,9.20956,1496,viewpoint|lake|food|mountain,Cable car or short hike | Panorama viewpoint stop | Mountain hut lunch,"https://maps.google.com/?q=45.87362,9.20956",https://www.sbb.ch/en,,candidate
locarno-madonna-del-sasso,Locarno Madonna del Sasso,Ticino Sun Terrace,CH,45.84632,8.70234,721,mountain|food|family,Cable car or short hike | Panorama viewpoint stop | Mountain hut lunch,"https://maps.google.com/?q=45.84632,8.70234",https://www.sbb.ch/en,,candidate
monte-bre,Monte Brè,Ticino Sun Terrace,CH,46.18288,8.73039,1070,mountain|food|family,Cable car or short hike | Panorama viewpoint stop | Mountain hut lunch,"https://maps.google.com/?q=46.18288,8.73039",https://www.sbb.ch/en,,candidate
monte-san-salvatore,Monte San Salvatore,Ticino Sun Terrace,CH,46.30447,8.92887,1154,viewpoint|lake|town|family,Cable car or short hike | Panorama viewpoint stop | Mountain hut lunch,"https://maps.google.com/?q=46.30447,8.92887",https://www.sbb.ch/en,,candidate
morcote-view,Morcote View,Ticino Sun Terrace,CH,46.04427,8.65064,1618,lake|viewpoint|mountain,Cable car or short hike | Panorama viewpoint stop | Mountain hut lunch,"https://maps.google.com/?q=46.04427,8.65064",https://www.sbb.ch/en,,candidate
mte-lema,Mte Lema,Ticino Sun Terrace,CH,45.83192,9.03506,1944,town|family|food|mountain,Cable car or short hike | Panorama viewpoint stop | Mountain hut lunch,"https://maps.google.com/?q=45.83192,9.03506",https://www.sbb.ch/en,,candidate
mte-tamaro,Mte Tamaro,Ticino Sun Terrace,CH,45.94621,8.82430,348,lake|viewpoint|family,Cable car or short hike | Panorama viewpoint stop | Mountain hut lunch,"https://maps.google.com/?q=45.94621,8.82430",https://www.sbb.ch/en,,candidate
rasa-panorama,Rasa Panorama,Ticino Sun Terrace,CH,46.12654,9.03065,1032,mountain|food|family,Cable car or short hike | Panorama viewpoint stop | Mountain hut lunch,"https://maps.google.com/?q=46.12654,9.03065",https://www.sbb.ch/en,,candidate
riviera-terrace,Riviera Terrace,Ticino Sun Terrace,CH,46.07275,9.06385,661,lake|viewpoint|family,Cable car or short hike | Panorama viewpoint stop | Mountain hut lunch,"https://maps.google.com/?q=46.07275,9.06385",https://www.sbb.ch/en,,candidate
ticino-sun-terrace-panorama-01,Ticino Sun Terrace Panorama 01,Ticino Sun Terrace,CH,46.07284,9.19776,529,viewpoint|lake|food|mountain,Cable car or short hike | Panorama viewpoint stop | Mountain hut lunch,"https://maps.google.com/?q=46.07284,9.19776",https://www.sbb.ch/en,,candidate
ticino-sun-terrace-panorama-02,Ticino Sun Terrace Panorama 02,Ticino Sun Terrace,CH,45.81250,9.21742,1471,mountain|food|lake,Cable car or short hike | Panorama viewpoint stop | Mountain hut lunch,"https://maps.google.com/?q=45.81250,9.21742",https://www.sbb.ch/en,,candidate
ticino-sun-terrace-panorama-03,Ticino Sun Terrace Panorama 03,Ticino Sun Terrace,CH,46.01466,9.22345,1050,food|mountain|viewpoint|lake,Cable car or short hike | Panorama viewpoint stop | Mountain hut lunch,"https://maps.google.com/?q=46.01466,9.22345",https://www.sbb.ch/en,,candidate
ticino-sun-terrace-panorama-04,Ticino Sun Terrace Panorama 04,Ticino Sun Terrace,CH,46.29152,8.96284,317,mountain|food|family,Cable car or short hike | Panorama viewpoint stop | Mountain hut lunch,"https://maps.google.com/?q=46.29152,8.96284",https://www.sbb.ch/en,,candidate
ticino-sun-terrace-panorama-05,Ticino Sun Terrace Panorama 05,Ticino Sun Terrace,CH,45.88453,8.94270,1206,food|mountain|town|family,Cable car or short hike | Panorama viewpoint stop | Mountain hut lunch,"https://maps.google.com/?q=45.88453,8.94270",https://www.sbb.ch/en,,candidate
ticino-sun-terrace-panorama-06,Ticino Sun Terrace Panorama 06,Ticino Sun Terrace,CH,46.26295,8.63901,982,family|town|mountain,Cable car or short hike | Panorama viewpoint stop | Mountain hut lunch,"https://maps.google.com/?q=46.26295,8.63901",https://www.sbb.ch/en,,candidate
ticino-sun-terrace-panorama-07,Ticino Sun Terrace Panorama 07,Ticino Sun Terrace,CH,46.21073,9.06164,1784,food|mountain|viewpoint|lake,Cable car or short hike | Panorama viewpoint stop | Mountain hut lunch,"https://maps.google.com/?q=46.21073,9.06164",https://www.sbb.ch/en,,candidate
ticino-sun-terrace-panorama-08,Ticino Sun Terrace Panorama 08,Ticino Sun Terrace,CH,45.98878,8.87534,1559,lake|viewpoint|mountain,Cable car or short hike | Panorama viewpoint stop | Mountain hut lunch,"https://maps.google.com/?q=45.98878,8.87534",https://www.sbb.ch/en,,candidate
ticino-sun-terrace-panorama-09,Ticino Sun Terrace Panorama 09,Ticino Sun Terrace,CH,45.86797,9.09260,1070,viewpoint|lake|food|mountain,Cable car or short hike | Panorama viewpoint stop | Mountain hut lunch,"https://maps.google.com/?q=45.86797,9.09260",https://www.sbb.ch/en,,candidate
ticino-sun-terrace-panorama-10,Ticino Sun Terrace Panorama 10,Ticino Sun Terrace,CH,45.90528,9.23909,809,town|family|food|mountain,Cable car or short hike | Panorama viewpoint stop | Mountain hut lunch,"https://maps.google.com/?q=45.90528,9.23909",https://www.sbb.ch/en,,candidate
ticino-sun-terrace-panorama-11,Ticino Sun Terrace Panorama 11,Ticino Sun Terrace,CH,45.95750,8.83800,407,family|town|mountain,Cable car or short hike | Panorama viewpoint stop | Mountain hut lunch,"https://maps.google.com/?q=45.95750,8.83800",https://www.sbb.ch/en,,candidate
ticino-sun-terrace-panorama-12,Ticino Sun Terrace Panorama 12,Ticino Sun Terrace,CH,46.26344,8.61271,649,food|mountain|town|family,Cable car or short hike | Panorama viewpoint stop | Mountain hut lunch,"https://maps.google.com/?q=46.26344,8.61271",https://www.sbb.ch/en,,candidate
aletsch-arena,Aletsch Arena,Valais Alpine,CH,46.42771,7.35701,1255,nature|thermal|town,Thermal bath session | Scenic promenade | Terrace meal before return,"https://maps.google.com/?q=46.42771,7.35701",https://www.sbb.ch/en,,candidate
anzere,Anzère,Valais Alpine,CH,46.12894,7.08895,741,mountain|town|thermal|nature,Thermal bath session | Scenic promenade | Terrace meal before return,"https://maps.google.com/?q=46.12894,7.08895",https://www.sbb.ch/en,,candidate
bettmeralp,Bettmeralp,Valais Alpine,CH,46.31038,7.38501,1996,viewpoint|nature|thermal,Thermal bath session | Scenic promenade | Terrace meal before return,"https://maps.google.com/?q=46.31038,7.38501",https://www.sbb.ch/en,,candidate
brig-panorama,Brig Panorama,Valais Alpine,CH,46.26619,7.04006,738,viewpoint|nature|thermal,Thermal bath session | Scenic promenade | Terrace meal before return,"https://maps.google.com/?q=46.26619,7.04006",https://www.sbb.ch/en,,candidate
crans-montana,Crans-Montana,Valais Alpine,CH,46.16094,7.45595,1391,nature|thermal|mountain,Thermal bath session | Scenic promenade | Terrace meal before return,"https://maps.google.com/?q=46.16094,7.45595",https://www.sbb.ch/en,,candidate
grimentz,Grimentz,Valais Alpine,CH,46.42889,7.54850,710,viewpoint|nature|thermal,Thermal bath session | Scenic promenade | Terrace meal before return,"https://maps.google.com/?q=46.42889,7.54850",https://www.sbb.ch/en,,candidate
leukerbad-terrace,Leukerbad Terrace,Valais Alpine,CH,46.06507,7.66837,1403,viewpoint|nature|thermal,Thermal bath session | Scenic promenade | Terrace meal before return,"https://maps.google.com/?q=46.06507,7.66837",https://www.sbb.ch/en,,candidate
nendaz-sun-deck,Nendaz Sun Deck,Valais Alpine,CH,46.45615,7.78643,2010,nature|viewpoint|town|thermal,Thermal bath session | Scenic promenade | Terrace meal before return,"https://maps.google.com/?q=46.45615,7.78643",https://www.sbb.ch/en,,candidate
ovronnaz,Ovronnaz,Valais Alpine,CH,45.95675,7.15387,1125,town|thermal|viewpoint|mountain,Thermal bath session | Scenic promenade | Terrace meal before return,"https://maps.google.com/?q=45.95675,7.15387",https://www.sbb.ch/en,,candidate
riederalp,Riederalp,Valais Alpine,CH,45.95044,7.67370,765,viewpoint|nature|town,Cable car or short hike | Panorama viewpoint stop | Mountain hut lunch,"https://maps.google.com/?q=45.95044,7.67370",https://www.sbb.ch/en,,candidate
saas-fee-rim,Saas-Fee Rim,Valais Alpine,CH,45.98716,7.09665,879,mountain|viewpoint|thermal,Thermal bath session | Scenic promenade | Terrace meal before return,"https://maps.google.com/?q=45.98716,7.09665",https://www.sbb.ch/en,,candidate
saillon-thermal-view,Saillon Thermal View,Valais Alpine,CH,46.49282,7.62949,2065,mountain|viewpoint|nature,Cable car or short hike | Panorama viewpoint stop | Mountain hut lunch,"https://maps.google.com/?q=46.49282,7.62949",https://www.sbb.ch/en,,candidate
sion-hilltop,Sion Hilltop,Valais Alpine,CH,46.43791,7.04848,1327,nature|thermal|town,Thermal bath session | Scenic promenade | Terrace meal before return,"https://maps.google.com/?q=46.43791,7.04848",https://www.sbb.ch/en,,candidate
valais-alpine-panorama-01,Valais Alpine Panorama 01,Valais Alpine,CH,46.46255,7.69881,2050,viewpoint|nature|town,Cable car or short hike | Panorama viewpoint stop | Mountain hut lunch,"https://maps.google.com/?q=46.46255,7.69881",https://www.sbb.ch/en,,candidate
valais-alpine-panorama-02,Valais Alpine Panorama 02,Valais Alpine,CH,46.41604,7.26462,1459,town|thermal|viewpoint|mountain,Thermal bath session | Scenic promenade | Terrace meal before return,"https://maps.google.com/?q=46.41604,7.26462",https://www.sbb.ch/en,,candidate
valais-alpine-panorama-03,Valais Alpine Panorama 03,Valais Alpine,CH,46.34119,7.52303,1425,thermal|town|mountain,Thermal bath session | Scenic promenade | Terrace meal before return,"https://maps.google.com/?q=46.34119,7.52303",https://www.sbb.ch/en,,candidate
valais-alpine-panorama-04,Valais Alpine Panorama 04,Valais Alpine,CH,46.41152,7.40943,1498,nature|viewpoint|mountain|town,Cable car or short hike | Panorama viewpoint stop | Mountain hut lunch,"https://maps.google.com/?q=46.41152,7.40943",https://www.sbb.ch/en,,candidate
valais-alpine-panorama-05,Valais Alpine Panorama 05,Valais Alpine,CH,46.06369,7.20971,1972,mountain|viewpoint|thermal,Thermal bath session | Scenic promenade | Terrace meal before return,"https://maps.google.com/?q=46.06369,7.20971",https://www.sbb.ch/en,,candidate
valais-alpine-panorama-06,Valais Alpine Panorama 06,Valais Alpine,CH,46.19527,7.46936,1477,mountain|town|nature|viewpoint,Cable car or short hike | Panorama viewpoint stop | Mountain hut lunch,"https://maps.google.com/?q=46.19527,7.46936",https://www.sbb.ch/en,,candidate
valais-alpine-panorama-07,Valais Alpine Panorama 07,Valais Alpine,CH,46.36426,7.42377,1749,viewpoint|nature|thermal,Thermal bath session | Scenic promenade | Terrace meal before return,"https://maps.google.com/?q=46.36426,7.42377",https://www.sbb.ch/en,,candidate
valais-alpine-panorama-08,Valais Alpine Panorama 08,Valais Alpine,CH,46.45849,7.34045,1650,thermal|nature|viewpoint|town,Thermal bath session | Scenic promenade | Terrace meal before return,"https://maps.google.com/?q=46.45849,7.34045",https://www.sbb.ch/en,,candidate
valais-alpine-panorama-09,Valais Alpine Panorama 09,Valais Alpine,CH,46.20541,7.23667,2394,viewpoint|nature|town,Cable car or short hike | Panorama viewpoint stop | Mountain hut lunch,"https://maps.google.com/?q=46.20541,7.23667",https://www.sbb.ch/en,,candidate
valais-alpine-panorama-10,Valais Alpine Panorama 10,Valais Alpine,CH,46.00949,7.45083,1367,mountain|viewpoint|nature,Cable car or short hike | Panorama viewpoint stop | Mountain hut lunch,"https://maps.google.com/?q=46.00949,7.45083",https://www.sbb.ch/en,,candidate
valais-alpine-panorama-11,Valais Alpine Panorama 11,Valais Alpine,CH,46.13522,7.50298,1172,viewpoint|mountain|thermal|nature,Thermal bath session | Scenic promenade | Terrace meal before return,"https://maps.google.com/?q=46.13522,7.50298",https://www.sbb.ch/en,,candidate
valais-alpine-panorama-12,Valais Alpine Panorama 12,Valais Alpine,CH,45.97542,7.11127,2104,town|mountain|nature,Cable car or short hike | Panorama viewpoint stop | Mountain hut lunch,"https://maps.google.com/?q=45.97542,7.11127",https://www.sbb.ch/en,,candidate
valais-alpine-panorama-13,Valais Alpine Panorama 13,Valais Alpine,CH,46.23109,7.21833,806,nature|viewpoint|mountain|town,Cable car or short hike | Panorama viewpoint stop | Mountain hut lunch,"https://maps.google.com/?q=46.23109,7.21833",https://www.sbb.ch/en,,candidate
verbier-view,Verbier View,Valais Alpine,CH,46.29536,7.28637,2379,town|thermal|nature|viewpoint,Thermal bath session | Scenic promenade | Terrace meal before return,"https://maps.google.com/?q=46.29536,7.28637",https://www.sbb.ch/en,,candidate
zermatt-sun-deck,Zermatt Sun Deck,Valais Alpine,CH,46.31059,7.23274,1879,mountain|viewpoint|nature,Cable car or short hike | Panorama viewpoint stop | Mountain hut lunch,"https://maps.google.com/?q=46.31059,7.23274",https://www.sbb.ch/en,,candidate
zinal-panorama,Zinal Panorama,Valais Alpine,CH,46.16999,7.31486,931,mountain|viewpoint|thermal,Thermal bath session | Scenic promenade | Terrace meal before return,"https://maps.google.com/?q=46.16999,7.31486",https://www.sbb.ch/en,,candidate
leysin,Leysin,"Vaud, VD",CH,46.34300,7.01300,1263,town|mountain|family,Village walk with panoramic views | Berneuse revolving restaurant | Easy winter walks | Views over Rhone valley fog,"https://maps.google.com/?q=46.343,7.013",https://www.sbb.ch/en,,baseline
rochers-de-naye,Rochers de Naye,"Vaud, VD",CH,46.43200,6.97600,2042,nature|viewpoint|mountain|family,Rack railway from Montreux (55 min) | Summit panorama | Marmot park (summer) | Restaurant at summit,"https://maps.google.com/?q=46.432,6.976",https://www.sbb.ch/en,,baseline
bachtel,Bachtel,"Zurich Oberland, ZH",CH,47.27000,8.87000,1115,nature|viewpoint,Hike from Wald (45 min) | Observation tower at summit | Bachtel-Kulm restaurant with panoramic terrace,"https://maps.google.com/?q=47.270,8.870",https://www.sbb.ch/en,,baseline
pfannenstiel,Pfannenstiel,"Zurich, ZH",CH,47.30400,8.65300,853,nature|viewpoint|family,Walk from Meilen or Egg (30 min) | Viewpoint over Lake Zurich and fog | Restaurant Pfannenstiel,"https://maps.google.com/?q=47.304,8.653",https://www.sbb.ch/en,,baseline
uetliberg,Uetliberg,"Zurich, ZH",CH,47.35000,8.49200,871,nature|viewpoint|family,S10 train from Zurich HB (20 min) | Summit tower | Planetenweg trail to Felsenegg | Gondola down to Adliswil,"https://maps.google.com/?q=47.350,8.492",https://www.sbb.ch/en,,baseline
freiburg-im-breisgau,Freiburg im Breisgau,Baden-Wurttemberg,DE,47.99900,7.84200,278,town|food|family,Old town with Bachle streams | Munster cathedral and market | Schlossberg viewpoint | Augustiner beer hall for lunch,"https://maps.google.com/?q=47.999,7.842",https://www.sbb.ch/en,,baseline
baiersbronn-hohen,Baiersbronn Höhen,Black Forest,DE,47.87776,8.07322,1001,food|family|viewpoint|nature,Cable car or short hike | Panorama viewpoint stop | Mountain hut lunch,"https://maps.google.com/?q=47.87776,8.07322",https://www.sbb.ch/en,,candidate
freudenstadt-south,Freudenstadt South,Black Forest,DE,47.68096,7.84489,757,nature|viewpoint|family,Cable car or short hike | Panorama viewpoint stop | Mountain hut lunch,"https://maps.google.com/?q=47.68096,7.84489",https://www.sbb.ch/en,,candidate
hinterzarten,Hinterzarten,Black Forest,DE,47.83638,7.89282,1075,mountain|viewpoint|nature|food,Cable car or short hike | Panorama viewpoint stop | Mountain hut lunch,"https://maps.google.com/?q=47.83638,7.89282",https://www.sbb.ch/en,,candidate
hochschwarzwald-panorama,Hochschwarzwald Panorama,Black Forest,DE,48.09722,8.11387,731,nature|food|mountain|viewpoint,Cable car or short hike | Panorama viewpoint stop | Mountain hut lunch,"https://maps.google.com/?q=48.09722,8.11387",https://www.sbb.ch/en,,candidate
menzenschwand,Menzenschwand,Black Forest,DE,48.00565,8.16692,747,viewpoint|mountain|family,Cable car or short hike | Panorama viewpoint stop | Mountain hut lunch,"https://maps.google.com/?q=48.00565,8.16692",https://www.sbb.ch/en,,candidate
schluchsee,Schluchsee,Black Forest,DE,48.00559,8.05498,864,nature|viewpoint|family,Cable car or short hike | Panorama viewpoint stop | Mountain hut lunch,"https://maps.google.com/?q=48.00559,8.05498",https://www.sbb.ch/en,,candidate
st-blasien-ridge,St Blasien Ridge,Black Forest,DE,47.82290,7.75739,586,family|mountain|viewpoint|nature,Cable car or short hike | Panorama viewpoint stop | Mountain hut lunch,"https://maps.google.com/?q=47.82290,7.75739",https://www.sbb.ch/en,,candidate
titisee-neustadt,Titisee-Neustadt,Black Forest,DE,47.70863,8.03124,796,family|mountain|nature|food,Cable car or short hike | Panorama viewpoint stop | Mountain hut lunch,"https://maps.google.com/?q=47.70863,8.03124",https://www.sbb.ch/en,,candidate
todtmoos,Todtmoos,Black Forest,DE,47.91047,8.04578,712,family|food|nature,Scenic stop | Short walk | Coffee or lunch and return,"https://maps.google.com/?q=47.91047,8.04578",https://www.sbb.ch/en,,candidate
wutach-vista,Wutach Vista,Black Forest,DE,47.78353,7.94343,1128,food|family|viewpoint|nature,Cable car or short hike | Panorama viewpoint stop | Mountain hut lunch,"https://maps.google.com/?q=47.78353,7.94343",https://www.sbb.ch/en,,candidate
badenweiler,Badenweiler,"Black Forest, Baden-Wurttemberg",DE,47.80300,7.67200,425,town|thermal|food,Cassiopeia thermal baths | Park walk with Black Forest views | Lunch at a local Gasthaus | Roman bath ruins,"https://maps.google.com/?q=47.803,7.672",https://www.sbb.ch/en,,baseline
belchen-schwarzwald,Belchen,"Black Forest, Baden-Wurttemberg",DE,47.82200,7.83300,1414,nature|viewpoint|mountain,Gondola from Multen | Summit panorama to Alps and Vosges | Ridge walk | Belchenhaus restaurant,"https://maps.google.com/?q=47.822,7.833",https://www.sbb.ch/en,,baseline
feldberg-schwarzwald,Feldberg,"Black Forest, Baden-Wurttemberg",DE,47.87400,8.00400,1493,nature|viewpoint|mountain|family,Drive or bus to summit area | Feldberg tower panoramic views | Ridge walks | Naturfreundehaus or Baldenweger Hutte for food,"https://maps.google.com/?q=47.874,8.004",https://www.sbb.ch/en,,baseline
schauinsland,Schauinsland,"Black Forest, Baden-Wurttemberg",DE,47.90500,7.89800,1284,nature|viewpoint|mountain|family,Gondola from Horben (near Freiburg) | Summit tower | Easy walks | Hof Schniederlihof museum | Gasthaus Schauinsland,"https://maps.google.com/?q=47.905,7.898",https://www.sbb.ch/en,,baseline
titisee,Titisee,"Black Forest, Baden-Wurttemberg",DE,47.89000,8.15000,845,lake|nature|family|food,Lake walk around Titisee (1.5h) | Boat ride | Black Forest cake at a lakeside cafe | Optional: Badeparadies waterpark,"https://maps.google.com/?q=47.890,8.150",https://www.sbb.ch/en,,baseline
todtnauer-wasserfall,Todtnauer Wasserfall,"Black Forest, Baden-Wurttemberg",DE,47.83700,7.94600,820,nature|family,Short hike to the waterfall (20 min) | Continue uphill for forest walks | Lunch in Todtnau village,"https://maps.google.com/?q=47.837,7.946",https://www.sbb.ch/en,,baseline
aach-hegau,Aach Hegau,Bodensee & Hegau,DE,47.83338,8.94549,618,viewpoint|food|town,Cable car or short hike | Panorama viewpoint stop | Mountain hut lunch,"https://maps.google.com/?q=47.83338,8.94549",https://www.sbb.ch/en,,candidate
allensbach-lakeside,Allensbach Lakeside,Bodensee & Hegau,DE,47.67085,8.71383,921,town|lake|viewpoint,Cable car or short hike | Panorama viewpoint stop | Mountain hut lunch,"https://maps.google.com/?q=47.67085,8.71383",https://www.sbb.ch/en,,candidate
bodman-ludwigshafen,Bodman-Ludwigshafen,Bodensee & Hegau,DE,47.66605,8.63322,681,town|family|food|viewpoint,Cable car or short hike | Panorama viewpoint stop | Mountain hut lunch,"https://maps.google.com/?q=47.66605,8.63322",https://www.sbb.ch/en,,candidate
meersburg,Meersburg,Bodensee & Hegau,DE,47.81622,9.13732,731,lake|viewpoint|family,Cable car or short hike | Panorama viewpoint stop | Mountain hut lunch,"https://maps.google.com/?q=47.81622,9.13732",https://www.sbb.ch/en,,candidate
radolfzell,Radolfzell,Bodensee & Hegau,DE,47.88939,8.84093,975,town|family|viewpoint|lake,Cable car or short hike | Panorama viewpoint stop | Mountain hut lunch,"https://maps.google.com/?q=47.88939,8.84093",https://www.sbb.ch/en,,candidate
reichenau-island-view,Reichenau Island View,Bodensee & Hegau,DE,47.68101,8.69523,812,town|lake|viewpoint,Cable car or short hike | Panorama viewpoint stop | Mountain hut lunch,"https://maps.google.com/?q=47.68101,8.69523",https://www.sbb.ch/en,,candidate
singen-hohentwiel,Singen Hohentwiel,Bodensee & Hegau,DE,47.80253,8.88178,951,food|family|town,Old town stroll | Local viewpoint | Lunch and easy return,"https://maps.google.com/?q=47.80253,8.88178",https://www.sbb.ch/en,,candidate
sipplingen-heights,Sipplingen Heights,Bodensee & Hegau,DE,47.65204,8.66292,591,food|family|lake,Lakeside walk | Viewpoint detour | Café break and return,"https://maps.google.com/?q=47.65204,8.66292",https://www.sbb.ch/en,,candidate
stockach-panorama,Stockach Panorama,Bodensee & Hegau,DE,47.76925,8.85087,552,lake|viewpoint|food,Cable car or short hike | Panorama viewpoint stop | Mountain hut lunch,"https://maps.google.com/?q=47.76925,8.85087",https://www.sbb.ch/en,,candidate
uberlingen,Überlingen,Bodensee & Hegau,DE,47.74393,8.98404,583,family|food|lake|town,Lakeside walk | Viewpoint detour | Café break and return,"https://maps.google.com/?q=47.74393,8.98404",https://www.sbb.ch/en,,candidate
konstanz,Konstanz,"Bodensee, Baden-Wurttemberg",DE,47.66000,9.17500,405,town|lake|food|family,Old town walk | Lakeside promenade | Imperia statue | Shopping (Sunday shopping DE side!) | Lake fish restaurant,"https://maps.google.com/?q=47.660,9.175",https://www.sbb.ch/en,,baseline
barr-vineyards,Barr Vineyards,Alsace,FR,48.10000,7.15599,524,family|food|town|viewpoint,Cable car or short hike | Panorama viewpoint stop | Mountain hut lunch,"https://maps.google.com/?q=48.10000,7.15599",https://www.sbb.ch/en,,candidate
guebwiller,Guebwiller,Alsace,FR,48.10000,7.43435,723,viewpoint|town|food,Cable car or short hike | Panorama viewpoint stop | Mountain hut lunch,"https://maps.google.com/?q=48.10000,7.43435",https://www.sbb.ch/en,,candidate
hunawihr,Hunawihr,Alsace,FR,47.87992,7.51760,840,viewpoint|town|food,Cable car or short hike | Panorama viewpoint stop | Mountain hut lunch,"https://maps.google.com/?q=47.87992,7.51760",https://www.sbb.ch/en,,candidate
obernai,Obernai,Alsace,FR,47.88289,7.11464,612,viewpoint|town|food,Cable car or short hike | Panorama viewpoint stop | Mountain hut lunch,"https://maps.google.com/?q=47.88289,7.11464",https://www.sbb.ch/en,,candidate
ribeauville,Ribeauvillé,Alsace,FR,48.10000,7.53432,712,viewpoint|town|food,Cable car or short hike | Panorama viewpoint stop | Mountain hut lunch,"https://maps.google.com/?q=48.10000,7.53432",https://www.sbb.ch/en,,candidate
selestat-heights,Sélestat Heights,Alsace,FR,48.10000,7.17845,773,viewpoint|town|food,Cable car or short hike | Panorama viewpoint stop | Mountain hut lunch,"https://maps.google.com/?q=48.10000,7.17845",https://www.sbb.ch/en,,candidate
thann,Thann,Alsace,FR,48.10000,7.10657,432,family|food|town|viewpoint,Cable car or short hike | Panorama viewpoint stop | Mountain hut lunch,"https://maps.google.com/?q=48.10000,7.10657",https://www.sbb.ch/en,,candidate
turckheim,Turckheim,Alsace,FR,48.10000,7.29118,339,food|family|viewpoint,Cable car or short hike | Panorama viewpoint stop | Mountain hut lunch,"https://maps.google.com/?q=48.10000,7.29118",https://www.sbb.ch/en,,candidate
strasbourg,Strasbourg,"Alsace, Bas-Rhin",FR,48.57340,7.75210,142,town|food|family,Petite France quarter & half-timbered houses | Strasbourg Cathedral (climb the tower) | Tarte flambée lunch at a winstub | Boat tour on the Ill river,"https://maps.google.com/?q=48.5734,7.7521",https://www.sbb.ch/en/buying/pages/fahrplan/fahrplan.xhtml?nach=Strasbourg,https://www.strasbourg.eu/webcams,baseline
colmar,Colmar,"Alsace, Haut-Rhin",FR,48.07900,7.35800,194,town|food|family,Petite Venise walk | Covered market for tarte flambee | Wine bars in old town | Unterlinden museum,"https://maps.google.com/?q=48.079,7.358",https://www.sbb.ch/en,,baseline
eguisheim,Eguisheim,"Alsace, Haut-Rhin",FR,48.04200,7.30700,210,town|food,Walk the circular village (30 min) | Wine tasting in local caves | Lunch at a winstub | Three Castles hike above town,"https://maps.google.com/?q=48.042,7.307",https://www.sbb.ch/en,,baseline
kaysersberg,Kaysersberg,"Alsace, Haut-Rhin",FR,48.13900,7.26400,242,town|food,Fortified bridge and old town walk | Wine tasting | Castle ruins viewpoint | Winstub lunch,"https://maps.google.com/?q=48.139,7.264",https://www.sbb.ch/en,,baseline
mulhouse,Mulhouse,"Alsace, Haut-Rhin",FR,47.75000,7.33500,240,town|family|food,Cite de l'Automobile (Bugatti museum) | Old town walk | Tarte flambee lunch | Zoo (family),"https://maps.google.com/?q=47.750,7.335",https://www.sbb.ch/en,,baseline
riquewihr,Riquewihr,"Alsace, Haut-Rhin",FR,48.16700,7.29800,300,town|food,Walk through the medieval main street | Wine tasting (Riesling and Gewurztraminer) | Dolder tower | Tarte flambee for lunch,"https://maps.google.com/?q=48.167,7.298",https://www.sbb.ch/en,,baseline
col-de-la-schlucht,Col de la Schlucht,Vosges,FR,47.99305,6.80736,1384,mountain|nature|family|food,Cable car or short hike | Panorama viewpoint stop | Mountain hut lunch,"https://maps.google.com/?q=47.99305,6.80736",https://www.sbb.ch/en,,candidate
gerardmer,Gérardmer,Vosges,FR,47.84872,6.75138,1329,nature|family|food|viewpoint,Cable car or short hike | Panorama viewpoint stop | Mountain hut lunch,"https://maps.google.com/?q=47.84872,6.75138",https://www.sbb.ch/en,,candidate
la-bresse,La Bresse,Vosges,FR,47.97888,7.06297,1389,family|nature|viewpoint,Cable car or short hike | Panorama viewpoint stop | Mountain hut lunch,"https://maps.google.com/?q=47.97888,7.06297",https://www.sbb.ch/en,,candidate
lac-blanc-ridge,Lac Blanc Ridge,Vosges,FR,47.99295,6.91965,711,viewpoint|mountain|nature|family,Cable car or short hike | Panorama viewpoint stop | Mountain hut lunch,"https://maps.google.com/?q=47.99295,6.91965",https://www.sbb.ch/en,,candidate
le-bonhomme,Le Bonhomme,Vosges,FR,47.82570,7.08145,1118,viewpoint|mountain|nature|family,Cable car or short hike | Panorama viewpoint stop | Mountain hut lunch,"https://maps.google.com/?q=47.82570,7.08145",https://www.sbb.ch/en,,candidate
le-markstein-pass,Le Markstein Pass,Vosges,FR,48.10000,7.22739,1057,food|family|mountain,Cable car or short hike | Panorama viewpoint stop | Mountain hut lunch,"https://maps.google.com/?q=48.10000,7.22739",https://www.sbb.ch/en,,candidate
markstein,Markstein,Vosges,FR,47.91562,6.87676,1102,nature|mountain|food,Cable car or short hike | Panorama viewpoint stop | Mountain hut lunch,"https://maps.google.com/?q=47.91562,6.87676",https://www.sbb.ch/en,,candidate
munster-valley-view,Munster Valley View,Vosges,FR,48.10000,7.26312,1350,viewpoint|food|nature,Cable car or short hike | Panorama viewpoint stop | Mountain hut lunch,"https://maps.google.com/?q=48.10000,7.26312",https://www.sbb.ch/en,,candidate
orbey-panorama,Orbey Panorama,Vosges,FR,48.10000,6.80218,1227,viewpoint|mountain|family|food,Cable car or short hike | Panorama viewpoint stop | Mountain hut lunch,"https://maps.google.com/?q=48.10000,6.80218",https://www.sbb.ch/en,,candidate
route-des-cretes-south,Route des Crêtes South,Vosges,FR,47.80546,6.95731,746,viewpoint|mountain|nature|family,Cable car or short hike | Panorama viewpoint stop | Mountain hut lunch,"https://maps.google.com/?q=47.80546,6.95731",https://www.sbb.ch/en,,candidate
grand-ballon,Grand Ballon,"Vosges, Haut-Rhin",FR,47.90500,7.09900,1424,nature|viewpoint|mountain,Drive Route des Cretes | Summit viewpoint | Panorama from Alps to Black Forest | Ferme-auberge for Munster cheese,"https://maps.google.com/?q=47.905,7.099",https://www.sbb.ch/en,,baseline
hohneck,Hohneck,"Vosges, Haut-Rhin",FR,48.04300,7.01000,1363,nature|viewpoint|mountain,Drive to col | Summit hike (30 min) | Panoramic views | Ferme-auberge du Gaschney for marcaire meal,"https://maps.google.com/?q=48.043,7.010",https://www.sbb.ch/en,,baseline
